PCO Name,PracticeName,Address1,Address2,Address3,Address4,PostCode,Total GP's,Dispensing GP's
DARLINGTON CCG (00C00),Felix House Surgery,,Middleton Lane,Middleton St.George,"Darlington, Co.Durham",DL2 1AA,4,4
DARLINGTON CCG (00C00),Rockliffe Court Surgery,The Surgery,Rockliffe Court,Hurworth Place,"Darlington, Co.Durham",DL2 2DS,3,3
"DURHAM DALES,EASINGTON & SEDGEFIELD CCG (00D00)",Auckland Medical Group,The Old Fire House,Watling Road,Bishop Auckland,County Durham,DL14 6RP,11,11
"DURHAM DALES,EASINGTON & SEDGEFIELD CCG (00D00)",Barnard Castle Surgery,,Victoria Road,Barnard Castle,County Durham,DL12 8HT,11,11
"DURHAM DALES,EASINGTON & SEDGEFIELD CCG (00D00)",Bewick Crescent Surgery,,27 Bewick Crescent,Newton Aycliffe,County Durham,DL5 5LH,11,11
"DURHAM DALES,EASINGTON & SEDGEFIELD CCG (00D00)",Evenwood Medical Practice,Copeland Lane,Evenwood,Bishop Auckland,County Durham,DL14 9SU,5,5
"DURHAM DALES,EASINGTON & SEDGEFIELD CCG (00D00)",Gainford Surgery,Main Road,Gainford,Darlington,County Durham,DL2 3BE,4,4
"DURHAM DALES,EASINGTON & SEDGEFIELD CCG (00D00)",Old Forge Surgery,The Surgery,Middleton-In-Teesdale,Barnard Castle,County Durham,DL12 0QE,3,3
"DURHAM DALES,EASINGTON & SEDGEFIELD CCG (00D00)",Pinfold Medical Practice,,"Pinfold Lane,Butterknowle",Bishop Auckland,County Durham,DL13 5NX,4,4
"DURHAM DALES,EASINGTON & SEDGEFIELD CCG (00D00)",St Andrew's Medical Practice,Sensier House,St Andrew's Lane,Spennymoor,County Durham,DL16 6QA,6,6
"DURHAM DALES,EASINGTON & SEDGEFIELD CCG (00D00)",The Weardale Practice,Dale Street,Stanhope,Bishop Auckland,County Durham,DL13 2XD,7,7
"DURHAM DALES,EASINGTON & SEDGEFIELD CCG (00D00)",Woodview Medical Practice,The Surgery,Cockfield,Bishop Auckland,Co.Durham,DL13 5AF,2,2
NORTH DURHAM CCG (00J00),Belmont & Sherburn Medical Group,Sherburn Surgery,Gray Avenue,Sherburn,County Durham,DH6 1JE,4,4
NORTH DURHAM CCG (00J00),Browney House Surgery,,"Front St, Langley Park",Durham,County Durham,DH7 9YT,2,2
NORTH DURHAM CCG (00J00),Oakfields Health Centre,,Hamsterley Colliery,Newcastle Upon Tyne,,NE17 7SB,4,4
NORTH DURHAM CCG (00J00),Pelton & Fellrose Medical Group,"Unit 1, Lavender Centre","Pelton Lane, Pelton",Chester Le Street,County Durham,DH2 1HS,6,6
NORTH DURHAM CCG (00J00),Pelton Fell Surgery,21 Gardiner Crescent,Pelton Fell,Chester-Le-Street,Co.Durham,DH2 2NJ,2,2
NORTH DURHAM CCG (00J00),The Haven Surgery,The Surgery,The Haven,Burnhope,Durham,DH7 0BD,2,2
NORTH DURHAM CCG (00J00),The Medical Group,Adrian Clark House,"Sawmills Lne, Meadowfield",Durham,County Durham,DH7 8NH,16,16
NORTH DURHAM CCG (00J00),West Rainton Surgery,"The Surgery,Woodland View",West Rainton,Houghton-Le-Spring,County Durham,DH4 6RQ,5,5
HARTLEPOOL AND STOCKTON-ON-TEES CCG (00K00),Park Lane Surgery,,Stillington,Stockton On Tees,Cleveland,TS21 1JS,3,3
NORTHUMBERLAND CCG (00L00),Belford Medical Practice,,Croft Field,Belford,Northumberland,NE70 7ER,6,6
NORTHUMBERLAND CCG (00L00),Branch End Surgery,,Main Road,Stocksfield,Northumberland,NE43 7LL,6,6
NORTHUMBERLAND CCG (00L00),Cheviot Medical Group,,Padgepool Place,Wooler,Northumberland,NE71 6BL,2,2
NORTHUMBERLAND CCG (00L00),Corbridge Health Centre,,Newcastle Road,Corbridge,Northumberland,NE45 5LG,7,7
NORTHUMBERLAND CCG (00L00),Felton Surgery,"Middle Farm, 51 Main St.",Felton,Morpeth,Northumberland,NE65 9PR,4,4
NORTHUMBERLAND CCG (00L00),Gas House Lane Surgery,Morpeth NHS Centre,The Mount,Morpeth,Northumberland,NE61 1JX,4,4
NORTHUMBERLAND CCG (00L00),Haydon Bridge & Allendale Medical Pract,Haydon Brg&allendale M/P,"North Bank,Haydon Bridge",Hexham,Northumberland,NE47 6LA,5,5
NORTHUMBERLAND CCG (00L00),Humshaugh & Wark Med Grp,,"The Surgery, Humshaugh",Hexham,Northumberland,NE46 4BU,5,5
NORTHUMBERLAND CCG (00L00),Infirmary Drive Medical Group,Infirmary Drive Med Group,The Consulting Rooms,Alnwick,Northumberland,NE66 2NR,8,8
NORTHUMBERLAND CCG (00L00),Ponteland Medical Group,Ponteland Prim. Care Ctr.,"Meadowfield, Ponteland",Ponteland,Newcastle Upon Tyne,NE20 9SD,13,13
NORTHUMBERLAND CCG (00L00),Riversdale Surgery,,51 Woodcroft Road,Wylam,Northumberland,NE41 8DH,4,4
NORTHUMBERLAND CCG (00L00),Scots Gap Medical Group,,"The Surgery, Scots Gap",Morpeth,Northumberland,NE61 4EG,2,2
NORTHUMBERLAND CCG (00L00),The Bondgate Surgery,,Infirmary Close,Alnwick,Northumberland,NE66 2NL,8,8
NORTHUMBERLAND CCG (00L00),The Gables Medical Group,,26 St Johns Road,Bedlington,Northumberland,NE22 7DU,6,6
NORTHUMBERLAND CCG (00L00),The Glendale Surgery,"Glendale Surg,Cheviot PCC",Padgepool Place,Wooler,Northumberland,NE71 6BL,3,3
NORTHUMBERLAND CCG (00L00),Union Brae & Norham Prac,,"Union Brae, Tweedmouth",Berwick-Upon-Tweed,Northumberland,TD15 2HB,7,7
NORTHUMBERLAND CCG (00L00),White Medical Group,Ponteland Prim. Care Ctr.,Meadowfield,Ponteland,Newcastle Upon Tyne,NE20 9SD,7,7
NORTHUMBERLAND CCG (00L00),Widdrington Surgery,,"Grange Road, Widdrington",Morpteh,Northumberland,NE61 5LX,5,5
EAST LANCASHIRE CCG (01A00),Harambee Surgery,,"27 Skipton Rd, Trawden",Colne,Lancashire,BB8 8QU,4,4
EAST LANCASHIRE CCG (01A00),Pendleside Medical Pract,,Clitheroe Health Centre,"Railway View Rd,Clitheroe",Lancashire,BB7 2JG,8,8
EAST LANCASHIRE CCG (01A00),Slaidburn Health Centre,,"Shay Lane, Slaidburn",Clitheroe,Lancashire,BB7 3EP,2,2
EAST LANCASHIRE CCG (01A00),The Castle Medical Group,,Railway View Road,Railway View Road,Lancashire,BB7 2JG,12,11
EAST LANCASHIRE CCG (01A00),Whalley Medical Centre,,"42 King Street, Whalley",Clitheroe,,BB7 9SL,8,8
EASTERN CHESHIRE CCG (01C00),Annandale Medical Centre,,Mobberley Road,Knutsford,Cheshire,WA16 8HR,3,3
EASTERN CHESHIRE CCG (01C00),Chelford Surgery,,Elmstead Road,Chelford,Cheshire,SK11 9BS,4,4
EASTERN CHESHIRE CCG (01C00),The Health Centre (holmes Chapel),Holmes Chapel Health Ctr,London Road,Holmes Chapel,Cheshire,CW4 7BB,7,7
GREATER PRESTON CCG (01E00),Great Eccleston Hlth Ctr,,"Raikes Rd,Great Eccleston",Preston,Lancashire,PR3 0ZA,5,5
GREATER PRESTON CCG (01E00),Riverside Medical Centre,,194 Victoria Road,Walton-Le-Dale,Preston,PR5 4AY,6,6
CUMBRIA CCG (01H00),Alston Medical Practice,The Surgery,Cottage Hospital,Alston,Cumbria,CA9 3QX,3,3
CUMBRIA CCG (01H00),Askam Surgery,The Surgery,2 Parklands Drive,Askam-In-Furness,Cumbria,LA16 7JP,1,1
CUMBRIA CCG (01H00),Bank Street Surgery,,9 Bank Street,Keswick,Cumbria,CA12 5JY,1,1
CUMBRIA CCG (01H00),Bentham Medical Practice,,"Grasmere Dr,High Bentham",Lancaster,,LA2 7JP,9,9
CUMBRIA CCG (01H00),Brampton Medical Practice,,"4 Market Place, Brampton",Carlisle,Cumbria,CA8 1NL,12,12
CUMBRIA CCG (01H00),Caldbeck Surgery,,"Friar Row,Caldbeck",Wigton,Cumbria,CA7 8DS,5,5
CUMBRIA CCG (01H00),Cartmel Surgery,,Haggs Lane,Cartmel,,LA11 6PH,2,2
CUMBRIA CCG (01H00),Castlehead Medical Centre,,Ambleside Road,Keswick,Cumbria,CA12 4DB,6,6
CUMBRIA CCG (01H00),Court Thorn Surgery,,Low Hesket,Carlisle,Cumbria,CA4 0HP,4,4
CUMBRIA CCG (01H00),Dalston Medical Group,,"The Surgery,Townsend Road","Townhead Road, Dalston","Carlisle, Cumbria",CA5 7PZ,4,4
CUMBRIA CCG (01H00),Derwent House Surgery,Cockermouth Comm Hsp Hc,Isel Road,Cockermouth,Cumbria,CA13 9HT,9,9
CUMBRIA CCG (01H00),Distington Surgery,The Surgery,"Hinnings Road, Distington",Workington,Cumbria,CA14 5UR,5,5
CUMBRIA CCG (01H00),Duddon Valley Medical Practice,Kirkby Surgery,Askew Gate,Kirkby-In-Furness,Cumbria,LA17 7TE,2,2
CUMBRIA CCG (01H00),Glenridding Health Centre,,Glenridding,Penrith,Cumbria,CA11 0PD,3,3
CUMBRIA CCG (01H00),Haverthwaite Surgery,,"Haverthwaite, Backbarrow",Ulverston,Cumbria,LA12 8QF,3,3
CUMBRIA CCG (01H00),Kirkoswald Surgery,The Surgery,Kirkoswald,Penrith,Cumbria,CA10 1DQ,2,2
CUMBRIA CCG (01H00),Lunesdale Surgery,The Lunesdale Surgery,Kirkby Lonsdale,Nr Carnforth,Lancashire,LA6 2HQ,6,6
CUMBRIA CCG (01H00),Seascale Health Centre,,Gosforth Road,Seascale,Cumbria,CA20 1PN,7,7
CUMBRIA CCG (01H00),Sedbergh Medical Practice,,"Sedbergh M/Ctr,Station Rd",Sedbergh,Cumbria,LA10 5DL,5,5
CUMBRIA CCG (01H00),Shap Medical Practice,Shap Health Centre,"Peggy Nut Croft, Shap",Penrith,Cumbria,CA10 3LW,3,3
CUMBRIA CCG (01H00),Solway Health Services,,"Workington Hpl,Park Lane",Workington,,CA14 2RW,1,1
CUMBRIA CCG (01H00),St.Mary's Surgery,,Applethwaite,Windermere,Cumbria,LA23 1BA,6,6
CUMBRIA CCG (01H00),Station House Surgery,,Station Road,Kendal,Cumbria,LA9 6SA,10,10
CUMBRIA CCG (01H00),Stoneleigh Surgery,,Police Square,Milnthorpe,Cumbria,LA7 7PW,6,6
CUMBRIA CCG (01H00),Temple Sowerby Medical Practice,Linden Park,Temple Sowerby,Penrith,Cumbria,CA10 1RW,4,4
CUMBRIA CCG (01H00),The Croft Surgery,,Kirkbride,Carlisle,Cumbria,CA7 5JH,5,5
CUMBRIA CCG (01H00),The James Cochrane Pract.,James Cochrane Practice,Burton Road,Kendal,Cumbria,LA9 7HR,9,9
CUMBRIA CCG (01H00),Upper Eden Medical Practice,The Medical Centre,Silver Street,Kirkby Stephen,Cumbria,CA17 4RB,7,7
CUMBRIA CCG (01H00),Whitehaven Medical Centre,,Catherine Street,Whitehaven,Cumbria,CA28 7PA,2,2
CUMBRIA CCG (01H00),Wraysdale House Surgery,Wraysdale House,,Coniston,Cumbria,LA21 8ER,2,2
LANCASHIRE NORTH CCG (01K00),Ash Trees Surgery,,Market Street,Carnforth,Lancashire,LA5 9JU,15,15
LANCASHIRE NORTH CCG (01K00),Landscape Surgery,,Kepple Lane,"Kepple Lane, Garstang",Lancashire,PR3 1PB,6,6
LANCASHIRE NORTH CCG (01K00),Rosebank Surgery,,Ashton Road,Lancaster,Lancashire,LA1 4JS,9,9
LANCASHIRE NORTH CCG (01K00),Windsor Surgery,,Garstang Medical Centre,"Kepple Lane, Garstang",Lancashire,PR3 1PB,9,9
SOUTH CHESHIRE CCG (01R00),Greenmoss Medical Centre,Portland Drive,,Scholar Green,Cheshire,ST7 3BT,4,4
SOUTH CHESHIRE CCG (01R00),The Surgery,Wrenbury Medical Centre,Nantwich Road,Wrenbury,Cheshire,CW5 8EW,3,3
VALE ROYAL CCG (02D00),Watling Street Surgery,,2 Watling Street,Northwich,Cheshire,CW9 5EX,6,5
WARRINGTON CCG (02E00),Stretton Medical Centre,,"5 Hatton Lne, Stretton",Warrington,Cheshire,WA4 4NE,1,1
WEST CHESHIRE CCG (02F00),Bunbury Medical Practice,,Vicarage Lane,Bunbury,Cheshire,CW6 9PE,3,3
WEST CHESHIRE CCG (02F00),Kelsall Medical Centre,,Church Street,Kelsall,Cheshire,CW6 0QG,4,4
WEST CHESHIRE CCG (02F00),Laurel Bank Surgery,,Old Hall Street,Malpas,Cheshire,SY14 8PS,6,6
WEST CHESHIRE CCG (02F00),Tarporley Health Centre,The Health Centre,Park Road,Tarporley,Cheshire,CW6 0BE,5,4
WEST CHESHIRE CCG (02F00),The Knoll,The Knoll Surgery,Princeway Health Centre,Frodsham,Cheshire,WA6 6RX,8,8
WEST CHESHIRE CCG (02F00),The Village Surgeries Group,Ravensholme Lane,,Tattenhall,Cheshire,CH3 9DB,6,6
FYLDE & WYRE CCG (02M00),The Over-Wyre Med.Ctr.,Wilkinson Way,"Off Pilling Lne, Preesall",Poulton,Lancashire,FY6 0FA,7,7
"AIREDALE, WHARFEDALE AND CRAVEN CCG (02N00)",Addingham Surgery,Addingham Medical Centre,"151a Main St, Addingham",Ilkley,,LS29 0LZ,2,2
"AIREDALE, WHARFEDALE AND CRAVEN CCG (02N00)",Haworth Medical Practice,,"Heathcliffe Mews, Haworth",Keighley,,BD22 8DH,8,8
"AIREDALE, WHARFEDALE AND CRAVEN CCG (02N00)",Townhead Surgery,,Townhead,Settle,North Yorkshire,BD24 9JA,11,10
BARNSLEY CCG (02P00),Huddersfield Road Surgery,6 Huddersfield Road,,Barnsley,South Yorkshire,S70 2LT,9,9
BARNSLEY CCG (02P00),Kingswell Surgery  PMS Practice,Kingswell Surgery,40 Shrewsbury Road,"Penistone,Sheffield",South Yorkshire,S36 6DY,4,4
BARNSLEY CCG (02P00),Penistone Group PMS Practice,Penistone Group Practice,"The Surgery,19 High St",19 High Street,South Yorkshire,S36 6BR,14,14
BASSETLAW CCG (02Q00),Bawtry And Blyth Medical,Health Centre,Station Road,"Bawtry, Doncaster",South Yorkshire,DN10 6RQ,3,3
BASSETLAW CCG (02Q00),North Leverton Surgery,The Surgery,Sturton Road,North Leverton,"Retford, Nottinghamshire",DN22 0AB,2,2
BASSETLAW CCG (02Q00),The Misterton Group Pract,,Marsh Lane,"Misterton, Doncaster",South Yorkshire,DN10 4DL,3,3
BASSETLAW CCG (02Q00),Tuxford Medical Centre,The Surgery,Faraday Avenue,"Tuxford, Newark",Nottinghamshire,NG22 0HT,4,4
LEEDS NORTH CCG (02V00),Bramham Medical Centre,,"Clifford Road, Bramham",Wetherby,,LS23 6RN,4,4
LEEDS NORTH CCG (02V00),Collingham Church View Surgery,Church View Surgery,"School Lane,Collingham",Wetherby,West Yorkshire,LS22 5BQ,6,6
LEEDS NORTH CCG (02V00),Wetherby Surgery,,Hallfield Lane,Wetherby,West Yorkshire,LS22 6JS,4,4
DONCASTER CCG (02X00),Auckley Surgery,41 Ellers Lane,Auckley,Doncaster,,DN9 3HY,2,2
DONCASTER CCG (02X00),The Mayflower Medical Practice,The Mayflower Med Pract,The Health Centre,Station Road,"Bawtry,Doncaster",DN10 6RQ,8,8
EAST RIDING OF YORKSHIRE CCG (02Y00),"Church View Surgery, Hedon",Church View Surgery,"Market Hill, Hedon",Hull,,HU12 8JE,9,9
EAST RIDING OF YORKSHIRE CCG (02Y00),Dr Ad Underwood And Partners,The Health Centre,Manor Road,Beverley,East Yorkshire,HU17 7BZ,7,7
EAST RIDING OF YORKSHIRE CCG (02Y00),"Eastgate Medical Group, Hornsea",Eastgate Medical Group,37 Eastgate,Hornsea,East Yorkshire,HU18 1LP,9,9
EAST RIDING OF YORKSHIRE CCG (02Y00),Gilberdyke Health Centre,The Health Centre,Thornton Dam Lane,"Gilberdyke, Brough",,HU15 2UL,5,5
EAST RIDING OF YORKSHIRE CCG (02Y00),Hedon Group Practice,,Market Hill House,4 Market Hill,"Hedon, Hull",HU12 8JD,9,9
EAST RIDING OF YORKSHIRE CCG (02Y00),Leven & Beeford Medical Practice,Leven & Beeford Med/Prac,29 High Stile,Leven,Beverley,HU17 5NL,7,7
EAST RIDING OF YORKSHIRE CCG (02Y00),Market Weighton Group Practice,Wolds House,Medforth Street,Market Weighton,,YO43 3FF,9,9
EAST RIDING OF YORKSHIRE CCG (02Y00),South Holderness Medical Practice,South Holderness Med Prac,"St Nicholas Surg,Queen St",Withernsea,,HU19 2PZ,9,9
EAST RIDING OF YORKSHIRE CCG (02Y00),"The Medical Centre, Driffield",The Medical Centre,Cranwell Road,Driffield,,YO25 6UH,5,5
EAST RIDING OF YORKSHIRE CCG (02Y00),The Park Surgery,,6 Eastgate North,Driffield,East Yorkshire,YO25 6EB,10,10
EAST RIDING OF YORKSHIRE CCG (02Y00),The Ridings Medical Group,,"67 Ferry Road, South Cave",Brough,East Yorkshire,HU15 2JG,19,19
EAST RIDING OF YORKSHIRE CCG (02Y00),The Snaith And Rawcliffe Medical Group,The Marshes,"Butt Lane,Snaith",Goole,,DN14 9DY,9,8
EAST RIDING OF YORKSHIRE CCG (02Y00),Walkergate Surgery,,117-119 Walkergate,Beverley,,HU17 9BP,4,4
GREATER HUDDERSFIELD CCG (03A00),Oaklands Health Centre,,Huddersfield Road,"Holmfirth, Huddersfield",West Yorkshire,HD9 3TP,7,7
"HAMBLETON, RICHMONDSHIRE AND WHITBY CCG (03D00)",Aldbrough St John Surgery,Doctors Lane Surgery,Aldbrough St John,Richmond,North Yorkshire,DL11 7TH,3,3
"HAMBLETON, RICHMONDSHIRE AND WHITBY CCG (03D00)",Central Dales Practice,,The Health Centre,Hawes,North Yorkshire,DL8 3QR,4,4
"HAMBLETON, RICHMONDSHIRE AND WHITBY CCG (03D00)",Egton Surgery,,Egton,Whitby,North Yorkshire,YO21 1TX,3,3
"HAMBLETON, RICHMONDSHIRE AND WHITBY CCG (03D00)",Lambert Medical Centre,The Lambert Medical Ctr.,2 Chapel Street,Thirsk,North Yorkshire,YO7 1LU,9,9
"HAMBLETON, RICHMONDSHIRE AND WHITBY CCG (03D00)",Leyburn Medical Practice,,Brentwood,Leyburn,North Yorkshire,DL8 5EP,5,5
"HAMBLETON, RICHMONDSHIRE AND WHITBY CCG (03D00)",Mayford House Surgery,,Boroughbridge Road,Northallerton,North Yorkshire,DL7 8AW,7,7
"HAMBLETON, RICHMONDSHIRE AND WHITBY CCG (03D00)",Mowbray House Surgery,,Malpas Road,Northallerton,North Yorkshire,DL7 8FW,15,15
"HAMBLETON, RICHMONDSHIRE AND WHITBY CCG (03D00)",Quakers Lane Surgery,,Quakers Lane,Richmond,,DL10 4BB,4,4
"HAMBLETON, RICHMONDSHIRE AND WHITBY CCG (03D00)",Reeth Medical Centre,Reeth Surgery,Reeth,Richmond,North Yorkshire,DL11 6SU,2,2
"HAMBLETON, RICHMONDSHIRE AND WHITBY CCG (03D00)",Scorton Medical Centre,,"Stags Way, Scorton",Richmond,,DL10 6HB,3,3
"HAMBLETON, RICHMONDSHIRE AND WHITBY CCG (03D00)",Sleights And Sandsend Medical Practice,Sleights & Sandsend Pract,"Iburndale Lane, Sleights",Whitby,North Yorkshire,YO22 5DP,7,7
"HAMBLETON, RICHMONDSHIRE AND WHITBY CCG (03D00)",Staithes Surgery,,"Seaton Crescent, Staithes",Saltburn-By-The-Sea,Cleveland,TS13 5AY,4,4
"HAMBLETON, RICHMONDSHIRE AND WHITBY CCG (03D00)",The Danby Practice,,"Briar Hill, Danby",Whitby,North Yorkshire,YO21 2PA,3,3
"HAMBLETON, RICHMONDSHIRE AND WHITBY CCG (03D00)",The Friary Surgery,,Queens Road,Richmond,North Yorkshire,DL10 4UJ,4,4
"HAMBLETON, RICHMONDSHIRE AND WHITBY CCG (03D00)",Thirsk Doctors Surgery,The Health Centre,Chapel Street,Thirsk,North Yorkshire,YO7 1LG,7,7
"HAMBLETON, RICHMONDSHIRE AND WHITBY CCG (03D00)",Topcliffe Surgery,The Surgery,Long Street,Topcliffe,Nr. Thirsk,YO7 3RP,4,4
"HAMBLETON, RICHMONDSHIRE AND WHITBY CCG (03D00)",Whitby Group Practice,Whitby Group Practicr,Spring Vale Medical Ctr.,Whitby,North Yorkshire,YO21 1SD,18,17
HARROGATE AND RURAL DISTRICT CCG (03E00),Beech House Surgery,,1 Ash Tree Road,Knaresborough,North Yorkshire,HG5 0UB,6,6
HARROGATE AND RURAL DISTRICT CCG (03E00),Church Avenue Medical Group,The Surgery,54 Church Avenue,Harrogate,North Yorkshire,HG1 4HG,10,10
HARROGATE AND RURAL DISTRICT CCG (03E00),Church Lane Surgery,The Health Centre,Church Lane,Boroughbridge,York,YO51 9BD,11,11
HARROGATE AND RURAL DISTRICT CCG (03E00),Dr Akester & Partners,The Holroyd Surgery,Kirkby Malzeard,Ripon,North Yorkshire,HG4 3SE,5,5
HARROGATE AND RURAL DISTRICT CCG (03E00),Dr Ingram & Ptrs,The Surgery,7-8 Park Street,Ripon,,HG4 2AX,7,7
HARROGATE AND RURAL DISTRICT CCG (03E00),Nidderdale Group Practice,Feastfield Medical Centre,"King St, Pateley Bridge",Harrogate,North Yorkshire,HG3 5AT,10,10
HARROGATE AND RURAL DISTRICT CCG (03E00),North House Surgery,,"North House, North Street",Ripon,North Yorkshire,HG4 1HL,9,9
HARROGATE AND RURAL DISTRICT CCG (03E00),Ripon Spa Surgery,The Surgery,Park Street,Ripon,North Yorkshire,HG4 2BE,6,6
HARROGATE AND RURAL DISTRICT CCG (03E00),Springbank Surgery,,"York Rd, Green Hammerton",York,North Yorkshire,YO26 8BN,6,6
HARROGATE AND RURAL DISTRICT CCG (03E00),The Leeds Road Practice,Leeds Road Practice,49-51 Leeds Road,Harrogate,North Yorkshire,HG2 8AY,12,12
HULL CCG (03F00),The Sutton Manor Surgery,Sutton Manor Surgery,"St Ives Close, Wawne Road",Kingston Upon Hull,,HU7 4PT,5,5
LEEDS SOUTH AND EAST CCG (03G00),Garforth Medical Centre,,"Church Lane, Garforth",Leeds,,LS25 1HB,10,10
LEEDS SOUTH AND EAST CCG (03G00),Gibson Lane Practice,,"Gibson Lane, Kippax",Leeds,West Yorkshire,LS25 7JN,9,9
LEEDS SOUTH AND EAST CCG (03G00),Manston Surgery,,Station Road,Leeds,,LS15 8BZ,5,5
NORTH EAST LINCOLNSHIRE CCG (03H00),Dr A Sinha,Cromwell Primary Care Ctr,Cromwell Road,Grimsby,,DN31 2BH,1,1
NORTH EAST LINCOLNSHIRE CCG (03H00),Healing Partnership,Healing Health Centre,Wisteria Drive,"Healing, Grimsby",,DN41 7JB,2,2
NORTH EAST LINCOLNSHIRE CCG (03H00),The Roxton Practice,Pilgrim Primary Care Ctr,"Pelham Road, Immingham",Grimsby,,DN40 1JW,12,12
NORTH LINCOLNSHIRE CCG (03K00),Barnetby Medical Centre,The Medical Centre,Victoria Road,Barnetby,,DN38 6HZ,2,2
NORTH LINCOLNSHIRE CCG (03K00),Bridge Street Surgery,53 Bridge Street,,Brigg,South Humberside,DN20 8NT,5,5
NORTH LINCOLNSHIRE CCG (03K00),Kirton Lindsey Surgery,The Surgery,Traingate,Kirton Lindsey,Nr Gainsborough,DN21 4PQ,3,3
NORTH LINCOLNSHIRE CCG (03K00),Riverside Surgery,,Barnard Avenue,Brigg,South Humberside,DN20 8AS,7,7
NORTH LINCOLNSHIRE CCG (03K00),South Axholme Practice,,"60-62 High Street,Epworth",Doncaster,South Yorkshire,DN9 1EP,10,10
NORTH LINCOLNSHIRE CCG (03K00),The Central Surgery Barton,Central Surgery Barton,King Street,Barton Upon Humber,South Humberside,DN18 5ER,10,10
NORTH LINCOLNSHIRE CCG (03K00),The Killingholme Surgery,,Town Street,South Killingholme,North Lincolnshire,DN40 3EL,1,1
NORTH LINCOLNSHIRE CCG (03K00),Trent View Medical Practice,Trent View Medical Pract,"45 Trent View, Keadby",Scunthorpe,South Humberside,DN17 3DR,10,10
NORTH LINCOLNSHIRE CCG (03K00),West Town Surgery,,80 High Street,Barton-On-Humber,North Lincolnshire,DN18 5PU,2,2
NORTH LINCOLNSHIRE CCG (03K00),Winterton Medical Practice,The Surgery,"Manlake Avenue, Winterton",Scunthorpe,South Humberside,DN15 9TA,7,7
ROTHERHAM CCG (03L00),Dinnington Group Practice,,The Medical Centre,New Street,"Dinnington,Sheffield",S25 2EZ,14,14
ROTHERHAM CCG (03L00),Kiveton Park Medical Practice,Kiveton Park Primary Care,"Chapel Way, Kiveton Park",Sheffield,South Yorkshire,S26 6QU,10,10
ROTHERHAM CCG (03L00),Morthen Road Group Practice,Morthen Road Surgery,"2 Morthen Rd, Wickersley",Rotherham,South Yorkshire,S66 1EU,6,6
ROTHERHAM CCG (03L00),Thorpe Hesley Surgery,The Surgery,Sough Hall Avenue,Thorpe Hesley,Rotherham,S61 2QP,2,2
SCARBOROUGH AND RYEDALE CCG (03M00),Ampleforth Surgery,,"Back Lane, Ampleforth",York,North Yorkshire,YO62 4EF,6,6
SCARBOROUGH AND RYEDALE CCG (03M00),Derwent Practice,Derwent Surgery,"Norton Road, Norton","Norton, Malton",North Yorkshire,YO17 9RF,16,16
SCARBOROUGH AND RYEDALE CCG (03M00),Filey Surgery,The Filey Surgery,Station Avenue,Filey,North Yorkshire,YO14 9AE,8,8
SCARBOROUGH AND RYEDALE CCG (03M00),Hackness Road Surgery,,"19 Hackness Road, Newby",Scarborough,North Yorkshire,YO12 5SD,5,5
SCARBOROUGH AND RYEDALE CCG (03M00),Scarborough Medical Group,South Cliff Surgery,56 Esplanade Road,Scarborough,North Yorkshire,YO12 6UB,13,12
SCARBOROUGH AND RYEDALE CCG (03M00),Sherburn Surgery,St.Hilda's Surgery,"50 St.Hilda's St,Sherburn",Malton,,YO17 8PH,6,6
SCARBOROUGH AND RYEDALE CCG (03M00),West Ayton Surgery,The Surgery,53 Pickering Road,West Ayton,Scarborough,YO13 9JF,9,9
SHEFFIELD CCG (03N00),Deepcar Medical Centre,,"271 Manchester Rd,Deepcar",Sheffield,South Yorkshire,S36 2RA,8,8
SHEFFIELD CCG (03N00),Oughtibridge Surgery,,"Church St, Oughtibridge",Sheffield,South Yorkshire,S35 0FW,7,7
VALE OF YORK CCG (03Q00),Beech Tree Surgery,,68 Doncaster Road,Selby,North Yorkshire,YO8 9AJ,10,10
VALE OF YORK CCG (03Q00),Elvington Medical Practice,Elvington Surgery,"York Road,  Elvington",York,North Yorkshire,YO41 4DY,9,9
VALE OF YORK CCG (03Q00),Escrick Surgery,The Escrick Surgery,Escrick,York,North Yorkshire,YO19 6LE,5,5
VALE OF YORK CCG (03Q00),Haxby Group Practice,,Haxby/Wigginton Hlth Ctr.,"2 The Village, Wigginton",York,YO32 2LL,33,33
VALE OF YORK CCG (03Q00),Helmsley Surgery,The Medical Centre,Carlton Road,Helmsley,York,YO62 5HD,4,4
VALE OF YORK CCG (03Q00),Millfield Surgery,,"Millfield Ln, Easingwold",York,North Yorkshire,YO61 3JR,6,6
VALE OF YORK CCG (03Q00),My Health Group,Southfields Road,Strensall,York,,YO32 5UA,11,11
VALE OF YORK CCG (03Q00),Pickering Medical Practice,Pickering Surgery,Southgate,Pickering,North Yorkshire,YO18 8BL,11,11
VALE OF YORK CCG (03Q00),Pocklington Group Practice,The Beckside Centre,1 Amos Drive,Pocklington,,YO42 2BS,11,11
VALE OF YORK CCG (03Q00),Posterngate Surgery,,Portholme Road,Selby,North Yorkshire,YO8 4QH,13,13
VALE OF YORK CCG (03Q00),Sherburn Group Practice,,The Medical Centre,Beech Grove,Sherburn-In-Elmet,LS25 6ED,7,6
VALE OF YORK CCG (03Q00),South Milford Surgery,The Surgery,"High St, South Milford",Leeds,,LS25 5AA,6,6
VALE OF YORK CCG (03Q00),Stillington Surgery,The Surgery,North Back Lane,"Stillington, York",,YO61 1LL,3,3
VALE OF YORK CCG (03Q00),Tadcaster Medical Centre,,Crab Garth,Tadcaster,North Yorkshire,LS24 8HD,7,7
VALE OF YORK CCG (03Q00),Terrington Surgery,,Terrington,York,North Yorkshire,YO60 6PS,3,3
VALE OF YORK CCG (03Q00),The Old School Medical Practice,Old School Medical Pract,"Horseman Ln,Copmanthorpe",York,York,YO23 3UA,6,6
VALE OF YORK CCG (03Q00),Tollerton Surgery,5-7 Hambleton View,Tollerton,York,,YO61 1QW,3,3
WAKEFIELD CCG (03R00),Ferrybridge,Ferrybridge Medical Ctr,"8-10 High St,Ferrybridge",Wakefield,West Yorkshire,WF11 8NQ,11,10
WAKEFIELD CCG (03R00),Middlestown,Middlestown Med Centre,"New Road, Middlestown",Wakefield,West Yorkshire,WF4 4PA,6,6
WAKEFIELD CCG (03R00),White Rose Surgery,,"Exchange St,South Elmsall",Pontefract,West Yorkshire,WF9 2RD,12,12
LINCOLNSHIRE EAST CCG (03T00),Beacon Medical Practice,,Churchill Avenue,Skegness,Lincolnshire,PE25 2RN,9,9
LINCOLNSHIRE EAST CCG (03T00),Binbrook Surgery,,Back Lane,"Binbrook,Market Rasen",Lincolnshire,LN8 6ED,4,4
LINCOLNSHIRE EAST CCG (03T00),Caistor Health Centre,,Dale View,Caistor,Lincolnshire,LN7 6NX,2,2
LINCOLNSHIRE EAST CCG (03T00),Hawthorn Medical Practice,,Hawthorn Road,Skegness,Lincolnshire,PE25 3TD,7,7
LINCOLNSHIRE EAST CCG (03T00),Holbeach Medical Centre,,Park Road,Holbeach,,PE12 7EE,4,4
LINCOLNSHIRE EAST CCG (03T00),Horncastle Medical Group,The Old Vicarage,Spilsby Road,Horncastle,Lincolnshire,LN9 6AL,4,4
LINCOLNSHIRE EAST CCG (03T00),James Street Family Practice,James Street Family Pract,49 James Street,Louth,Lincolnshire,LN11 0JN,6,6
LINCOLNSHIRE EAST CCG (03T00),Kidgate Surgery,The Kidgate Surgery,32 Queen Street,Louth,Lincolnshire,LN11 9AU,3,3
LINCOLNSHIRE EAST CCG (03T00),Kirton Medical Centre,,"Boston Road,Kirton",Boston,,PE20 1DS,2,2
LINCOLNSHIRE EAST CCG (03T00),Market Rasen Surgery,The Surgery,Mill Road,Market Rasen,Lincolnshire,LN8 3BP,5,5
LINCOLNSHIRE EAST CCG (03T00),Marsh Medical Practice,,Keeling Street,North Somercotes,Lincolnshire,LN11 7QU,5,5
LINCOLNSHIRE EAST CCG (03T00),Merton Lodge Surgery,,33 West Street,Alford,Lincolnshire,LN13 9HT,4,4
LINCOLNSHIRE EAST CCG (03T00),Newmarket Medical Practice,Newmarket Med/Practice,153 Newmarket,Louth,Lincolnshire,LN11 9EH,3,3
LINCOLNSHIRE EAST CCG (03T00),North Thoresby Surgery,,Highfield Road,North Thoresby,Lincolnshire,DN36 5RT,6,6
LINCOLNSHIRE EAST CCG (03T00),Old Leake Medical Centre,The Medical Centre,"Church End,Old Leake",Boston,Lincolnshire,PE22 9LE,7,7
LINCOLNSHIRE EAST CCG (03T00),Spilsby Surgery,,"Bull Yard,Simpson Street",Spilsby,Lincolnshire,PE23 5LG,4,4
LINCOLNSHIRE EAST CCG (03T00),Stickney Surgery,The Surgery,"Main Road, Stickney",Boston,Lincolnshire,PE22 8AA,4,4
LINCOLNSHIRE EAST CCG (03T00),Swineshead Surgery,Fairfax House,"Packhorse Lane,Swineshead",Boston,Lincolnshire,PE20 3JE,4,4
LINCOLNSHIRE EAST CCG (03T00),Tasburgh Lodge Surgery,,30 Victoria Avenue,Woodhall Spa,Lincolnshire,LN10 6TX,7,7
LINCOLNSHIRE EAST CCG (03T00),The New Coningsby Surgery,,20 Silver Street,Coningsby,Lincolnshire,LN4 4SG,5,5
LINCOLNSHIRE EAST CCG (03T00),The Wolds Practice,,West Road,"Tetford, Nr.Horncastle",Lincolnshire,LN9 6QP,2,2
LINCOLNSHIRE EAST CCG (03T00),The Wragby Surgery,,Old Grammar School Way,Wragby,Lincolnshire,LN8 5DA,4,4
LINCOLNSHIRE EAST CCG (03T00),Woodhall Spa New Surgery,,The Broadway,Woodhall Spa,Lincolnshire,LN10 6SQ,4,4
CORBY CCG (03V00),Dr Sumira,Studfall Medical Centre,Studfall Court,Corby,Northamptonshire,NN17 1LG,1,1
CORBY CCG (03V00),Lakeside Healthcare,The Lakeside Surgery,Forest Gate Road,Corby,Northamptonshire,NN17 2UR,31,31
EAST LEICESTERSHIRE AND RUTLAND CCG (03W00),Countesthorpe Health Centre,Countesthorpe Health Ctr.,Central Street,Countesthorpe,Leicestershire,LE8 5QJ,9,9
EAST LEICESTERSHIRE AND RUTLAND CCG (03W00),Dr Kilpatrick And Partners,2a Station Street,,Kibworth,Leicestershire,LE8 0LN,7,7
EAST LEICESTERSHIRE AND RUTLAND CCG (03W00),Empingham Medical Centre,,"37 Main Street,Empingham",Oakham,Rutland,LE15 8PR,5,5
EAST LEICESTERSHIRE AND RUTLAND CCG (03W00),Kibworth Health Centre,,Smeeton Road,Kibworth,Leicester,LE8 0LG,4,4
EAST LEICESTERSHIRE AND RUTLAND CCG (03W00),Long Clawson Medical Practice,Long Clawson Med Practice,"The Sands, Long Clawson",Melton Mowbray,Leicestershire,LE14 4PA,6,5
EAST LEICESTERSHIRE AND RUTLAND CCG (03W00),Market Harborough Med.Ctr,,67 Coventry Road,Market Harborough,Leicestershire,LE16 9BX,15,14
EAST LEICESTERSHIRE AND RUTLAND CCG (03W00),Market Overton & Somerby Surgeries,Mkt Overton&somerby Srys,Thistleton Road,Market Overton,Rutland,LE15 7PP,12,12
EAST LEICESTERSHIRE AND RUTLAND CCG (03W00),The Billesdon Surgery,Billesdon Surgery,"4 Market Pl, Billesdon",Leicester,Leicestershire,LE7 9AJ,7,7
EAST LEICESTERSHIRE AND RUTLAND CCG (03W00),The Husbands Bosworth Surgery,The Surgery,Kilworth Road,Husbands Bosworth,Leicestershire,LE17 6JZ,15,15
EAST LEICESTERSHIRE AND RUTLAND CCG (03W00),The Uppingham Surgery,North Gate,Uppingham,Rutland,Leicestershire,LE15 9EG,10,10
EREWASH CCG (03X00),Littlewick Medical Centre,,42 Nottingham Road,Ilkeston,Derbyshire,DE7 5PR,13,13
LINCOLNSHIRE WEST CCG (04D00),Branston & Heighington Family Practice,The Surgery,Station Road,Branston,Lincolnshire,LN4 1LH,4,4
LINCOLNSHIRE WEST CCG (04D00),Cedars Residential Home,Intermediate Care,78 Morton Terrace,Gainsborough,,DN21 2RJ,1,1
LINCOLNSHIRE WEST CCG (04D00),Church Walk Surgery,,Drury Street,Metheringham,Lincolnshire,LN4 3EZ,2,2
LINCOLNSHIRE WEST CCG (04D00),Hawthorn Surgery,,Scotton Road,"Scotter, Gainsborough",Lincolnshire,DN21 3SB,3,2
LINCOLNSHIRE WEST CCG (04D00),Hibaldstow Medical Practice,Hibaldstow Medical Pract.,11 Church Street,"Hibaldstow, Brigg",Lincolnshire,DN20 9ED,3,3
LINCOLNSHIRE WEST CCG (04D00),Navenby Cliff Villages Surgery,Grantham Road,,Navenby,Lincolnshire,LN5 0JJ,4,4
LINCOLNSHIRE WEST CCG (04D00),Nettleham Medical Practice,Nettleham Medical Pract.,14 Lodge Lane,Nettleham,Lincolnshire,LN2 2RS,8,8
LINCOLNSHIRE WEST CCG (04D00),The Bassingham Surgery,Bassingham Surgery,20 Torgate Lane,Bassingham,Lincolnshire,LN5 9HF,5,5
LINCOLNSHIRE WEST CCG (04D00),The Glebe Practice,,85 Sykes Lane,Saxilby,Lincoln,LN1 2NU,4,4
LINCOLNSHIRE WEST CCG (04D00),The Ingham Surgery,Lincoln Road,,Ingham,Lincolnshire,LN1 2XF,1,1
LINCOLNSHIRE WEST CCG (04D00),Trent Valley Surgery,,85 Sykes Lane,"Saxilby, Lincoln",Lincolnshire,LN1 2NU,1,1
LINCOLNSHIRE WEST CCG (04D00),Washingborough Surgery,The Surgery,School Lane,Washingborough,Lincolnshire,LN4 1BN,3,3
LINCOLNSHIRE WEST CCG (04D00),Welton Family Health Centre,Welton Family Health Ctr.,4 Cliff Road,Welton,Lincolnshire,LN2 3JH,6,6
LINCOLNSHIRE WEST CCG (04D00),Willingham-By-Stow Surgery,The Surgery,High Street,Willingham-By-Stow,"Gainsborough,Lincolnshire",DN21 5JZ,3,3
MANSFIELD & ASHFIELD CCG (04E00),Jacksdale Medical Centre,Medical Centre,Main Road,Jacksdale,Nottinghamshire,NG16 5JW,2,2
NENE CCG (04G00),Brackley Medical Centre,,77 Halse Road,Brackley,Northamptonshire,NN13 6EQ,11,11
NENE CCG (04G00),Bugbrooke Medical Practice,Bugbrooke Med. Practice,Levitts Road,Bugbrooke,Northamptonshire,NN7 3QN,5,5
NENE CCG (04G00),Byfield Medical Centre,,Church Street,"Byfield, Daventry",Northamptonshire,NN11 6XN,4,4
NENE CCG (04G00),Crick Medical Practice,The Surgery,16 Watford Road,Crick,Northamptonshire,NN6 7TT,3,3
NENE CCG (04G00),Denton Village Surgery,,"Orchard Lane, Denton",Northampton,,NN7 1HT,5,5
NENE CCG (04G00),Dr Alexander,Marshalls Road Surgery,7 Marshalls Road,"Raunds, Wellingborough",Northamptonshire,NN9 6ET,1,1
NENE CCG (04G00),Dr Bevan & Partners,Spinneybrook Medical Cntr,59 High Street,Irthlingborough,Northamptonshire,NN9 5GA,7,7
NENE CCG (04G00),Dr Cotterell & Partners,The Nene Valley Surgery,Green Lane,Thrapston,Northamptonshire,NN14 4QL,3,3
NENE CCG (04G00),Dr Oliver Dk,Mawsley Village Surgery,"School Road,Mawsley",Kettering,Northamptonshire,NN14 1SN,2,2
NENE CCG (04G00),Earls Barton Medical Centre,8 Aggate Way,Earls Barton,Northampton,Northamptonshire,NN6 0EU,4,4
NENE CCG (04G00),Greens Norton & Weedon Medical Practice,Weedon Surgery,"57 New Croft, Weedon",Northampton,Northamptonshire,NN7 4RX,10,10
NENE CCG (04G00),Moulton Surgery,,120 Northampton Lane Nth.,Moulton,Northampton,NN3 7QP,6,6
NENE CCG (04G00),Springfield Surgery,,Springfield Way,Brackley,Northamptonshire,NN13 6JJ,5,5
NENE CCG (04G00),The Brook Health Centre,Swinneyford Road,,Towcester,Northamptonshire,NN12 6HD,5,5
NENE CCG (04G00),The Long Buckby Practice,Long Buckby Surgery,24 Station Road,Long Buckby,Northampton,NN6 7QB,4,4
NENE CCG (04G00),The Parks Medical Practice,Roade Medical Centre,"32 Stoke Road, Blisworth",Roade,Northamptonshire,NN7 3BT,11,11
NENE CCG (04G00),The Saxon Spires Practice,5 Northampton Road,Guilsborough,Northampton,Northamptonshire,NN6 9DX,10,10
NENE CCG (04G00),Towcester Medical Centre,,Link Way,Towcester,Northamptonshire,NN12 6HH,5,5
NENE CCG (04G00),Wollaston And Bozeat Surgeries,Wollaston Surgery,"163 London Rd, Wollaston",Wellingborough,Northamptonshire,NN29 7QS,9,9
NEWARK & SHERWOOD CCG (04H00),Collingham Medical Centre,,"High St, Collingham",Newark,Nottinghamshire,NG23 7LB,6,6
NEWARK & SHERWOOD CCG (04H00),Hounsfield Surgery,The Surgery,Hounsfield Way,Sutton-On-Trent,Nottinghamshire,NG23 6PX,3,3
NEWARK & SHERWOOD CCG (04H00),Southwell Medical Centre,The Ropewalk,The Ropewalk,Southwell,Nottinghamshire,NG25 0AL,8,8
NORTH DERBYSHIRE CCG (04J00),Bakewell Medical Centre,The Medical Centre,Butts Road,Bakewell,Derbyshire,DE45 1ED,9,9
NORTH DERBYSHIRE CCG (04J00),Baslow Health Centre,,"Church Lane, Baslow",Bakewell,Derbyshire,DE45 1SP,4,4
NORTH DERBYSHIRE CCG (04J00),Calow And Brimington Practice,Brimington&calow Med Prac,"Foljambe Road, Brimington",Chesterfield,Derbyshire,S43 1DD,5,5
NORTH DERBYSHIRE CCG (04J00),Darley Dale Medical Centre,The Darley Dale Med Ctr,"Two Dales, Darley Dale",Matlock,Matlock,DE4 2SA,8,8
NORTH DERBYSHIRE CCG (04J00),Dr A Palmer's Practice,Barlborough Medical Pract,The Old Malthouse,7 Worksop Road,"Barlborough, Chesterfield",S43 4TY,3,3
NORTH DERBYSHIRE CCG (04J00),Dr Gi Jones' Practice,Ashover Medical Centre,Milken Lane,Ashover,Chesterfield,S45 0BA,2,2
NORTH DERBYSHIRE CCG (04J00),Evelyn Medical Centre,The Evelyn Medical Centre,Marsh Avenue,Hope,,S33 6RJ,5,5
NORTH DERBYSHIRE CCG (04J00),Eyam Surgery,The Surgery,"Church Street, Eyam",Hope Valley,Derbyshire,S32 5QH,4,4
NORTH DERBYSHIRE CCG (04J00),Hartington Surgery,The Surgery,Dig Street,Hartington Buxton,Derbyshire,SK17 0AQ,1,1
NORTH DERBYSHIRE CCG (04J00),Tideswell Surgery,,"Parke Road, Tideswell",Buxton,Derbyshire,SK17 8NS,6,6
NORTH DERBYSHIRE CCG (04J00),Welbeck Road Health Centre,Welbeck Rd Health Centre,"1b Welbeck Road, Bolsover",Chesterfield,Derbyshire,S44 6DF,10,10
NOTTINGHAM NORTH & EAST CCG (04L00),Apple Tree Medical Practice,Apple Tree Medical Pract,4 Wheatsheaf Court,Burton Joyce,Nottingham,NG14 5EA,5,4
NOTTINGHAM NORTH & EAST CCG (04L00),The Calverton Practice,,2a St Wilfrid's Square,Nottingham,Nottingham,NG14 6FP,9,9
NOTTINGHAM NORTH & EAST CCG (04L00),The Ivy Medical Group,Lambley Lane Surgery,6 Lambley Lane,Burton Joyce,Nottinghamshire,NG14 5BG,4,4
NOTTINGHAM NORTH & EAST CCG (04L00),The Jubilee Practice,Lowdham Medical Ctr,Francklin Road,Lowdham,Nottinghamshire,NG14 7BG,2,2
NOTTINGHAM WEST CCG (04M00),Church Street Medical Ctr,,"11b Church St, Eastwood",Nottingham,,NG16 3BS,6,6
RUSHCLIFFE CCG (04N00),Belvoir Health Group,Cropwell Bishop Surgery,3 Newgate Street,Cropwell Bishop,Nottinghamshire,NG13 8FD,19,19
RUSHCLIFFE CCG (04N00),East Bridgford Med Centre,,"2 Butt Lane, E. Bridgford",Nottingham,,NG13 8NY,5,5
RUSHCLIFFE CCG (04N00),East Leake Medical Group,East Leake Health Centre,"Gotham Road, East Leake",Loughborough,Leicestershire,LE12 6JG,10,8
RUSHCLIFFE CCG (04N00),Keyworth Medical Practice,,"Bunny Lane, Keyworth",Nottingham,Nottinghamshire,NG12 5JU,10,10
RUSHCLIFFE CCG (04N00),Orchard Surgery,,"The Dragwell, Kegworth",Derby,Nottinghamshire,DE74 2EL,7,7
SOUTH WEST LINCOLNSHIRE CCG (04Q00),Ancaster Surgery,12 Ermine Street,Ancaster,Grantham,Lincolnshire,NG32 3PP,6,6
SOUTH WEST LINCOLNSHIRE CCG (04Q00),Belvoir Vale Surgery,,17a Walford Close,Bottesford,Nottinghamshire,NG13 0AN,4,2
SOUTH WEST LINCOLNSHIRE CCG (04Q00),Billinghay Medical Practice,Billinghay Med Practice,39 High Street,Billinghay,Lincolnshire,LN4 4AU,2,2
SOUTH WEST LINCOLNSHIRE CCG (04Q00),Colsterworth Surgery,Back Lane,Colsterworth,Grantham,Lincolnshire,NG33 5NJ,1,1
SOUTH WEST LINCOLNSHIRE CCG (04Q00),Long Bennington Surgery,The Medical Centre,10 Valley Lane,Long Bennington,Nottinghamshire,NG23 5FR,4,4
SOUTH WEST LINCOLNSHIRE CCG (04Q00),Market Cross Surgery,,Bourne Road,Corby Glen,Lincolnshire,NG33 4BB,3,3
SOUTH WEST LINCOLNSHIRE CCG (04Q00),Millview Medical Centre,,"1 Sleaford Rd,Heckington",Nr Sleaford,Lincolnshire,NG34 9QP,4,4
SOUTH WEST LINCOLNSHIRE CCG (04Q00),Ruskington Surgery,Ruskington Medical Pract,Brookside Close,Ruskington,Lincolnshire,NG34 9GQ,2,1
SOUTH WEST LINCOLNSHIRE CCG (04Q00),Sleaford Medical Group,,47 Boston Road,Sleaford,Lincolnshire,NG34 7HD,6,6
SOUTH WEST LINCOLNSHIRE CCG (04Q00),The Glenside Country Practice,Glenside Country Practice,"12b High St,Castle Bytham",Grantham,Lincolnshire,NG33 4RZ,3,3
SOUTH WEST LINCOLNSHIRE CCG (04Q00),The New Springwells Practice,The Surgery,Springwells,Billingborough,Lincolnshire,NG34 0QQ,3,3
SOUTH WEST LINCOLNSHIRE CCG (04Q00),The Stackyard Surgery,,1 The Stackyard,Croxton Kerrial,"Grantham, Lincolnshire",NG32 1QS,3,3
SOUTH WEST LINCOLNSHIRE CCG (04Q00),The Welby Practice,,"The Woll Surg, Walford Cl",Bottesford,Nottinghamshire,NG13 0AN,5,5
SOUTH WEST LINCOLNSHIRE CCG (04Q00),Woolsthorpe Surgery,"The Surgery, Main Street",Woolsthorpe By Belvoir,Grantham,Lincolnshire,NG32 1LX,3,3
SOUTHERN DERBYSHIRE CCG (04R00),Alvaston Medical Centre,,"14 Boulton Lane, Alvaston",Derby,Derbyshire,DE24 0GE,7,7
SOUTHERN DERBYSHIRE CCG (04R00),Arthur Medical Centre,The Arthur Medical Centre,Four Lane Ends,Horsley Woodhouse,Derbyshire,DE7 6AX,7,7
SOUTHERN DERBYSHIRE CCG (04R00),Ashbourne Medical Practice,Clifton Road,,Ashbourne,Derbyshire,DE6 1DR,5,5
SOUTHERN DERBYSHIRE CCG (04R00),Brailsford & Hulland Medical Practice,Brailsford Medical Centre,"The Green, Brailsford",Derby,Derbyshire,DE6 3BX,4,3
SOUTHERN DERBYSHIRE CCG (04R00),Crich Medical Practice,Crich Medical Centre,"Oakwell Drive,",Matlock,Derbyshire,DE4 5PB,5,5
SOUTHERN DERBYSHIRE CCG (04R00),Overseal Surgery,,"1 Hallcroft Ave, Overseal",Swadlincote,Derbyshire,DE12 6JF,2,2
SOUTHERN DERBYSHIRE CCG (04R00),The Surgery Clifton Road,The Surgery,Clifton Road,Ashbourne,Derbyshire,DE6 1RR,6,6
SOUTHERN DERBYSHIRE CCG (04R00),West Hallam Medical Ctr,The Dales,West Hallam Village,Ilkeston,Derbyshire,DE7 6GR,4,4
WEST LEICESTERSHIRE CCG (04V00),Castle Mead Medical Centre,Castle Mead Medical Ctr.,Hill Street,Hinckley,Leicestershire,LE10 1DS,6,6
WEST LEICESTERSHIRE CCG (04V00),Dishley Grange Medical Practice,32 Maxwell Drive,Gorse Covert,Loughborough,Leicestershire,LE11 4RZ,7,7
WEST LEICESTERSHIRE CCG (04V00),Ibstock House Surgery,,132 High Street,Ibstock,Leicestershire,LE67 6JP,7,7
WEST LEICESTERSHIRE CCG (04V00),Manor House Surgery,,1 Mill Lane,"Belton,Nr.Loughborough",Leicestershire,LE12 9UJ,3,3
WEST LEICESTERSHIRE CCG (04V00),Measham Medical Unit,High Street,Measham,Nr Swadlincote,Derbyshire,DE12 7HR,9,9
WEST LEICESTERSHIRE CCG (04V00),Newbold Verdon Med.Pract.,,St Georges Close,Newbold Verdon,Leicestershire,LE9 9PZ,6,6
WEST LEICESTERSHIRE CCG (04V00),The Burbage Surgery,,"Tilton Road, Burbage",Nr.Hinckley,Leicestershire,LE10 2SE,4,4
WEST LEICESTERSHIRE CCG (04V00),The Old School Surgery,,Hinckley Road,Stoney Stanton,Leicestershire,LE9 4LJ,5,5
WEST LEICESTERSHIRE CCG (04V00),The Orchard Med Practice,,Orchard Road,Broughton Astley,Leicestershire,LE9 6RG,7,7
CANNOCK CHASE CCG (04Y00),Horsefair Practice,Springfields H&wb Centre,Lovett Court,Rugeley,Staffordshire,WS15 2FH,5,4
COVENTRY AND RUGBY CCG (05A00),Brookside Surgery,,Stretton On Dunsmore,Nr Rugby,Warwickshire,CV23 9NH,3,3
COVENTRY AND RUGBY CCG (05A00),Park Leys Medical Practice,Park Leys Med Practice,Keresley Green Med Centre,Coventry,West Midlands,CV6 2FL,8,8
COVENTRY AND RUGBY CCG (05A00),Revel Surgery,The Surgery,"Barr Lane, Brinklow",Rugby,Warwickshire,CV23 0LU,6,6
COVENTRY AND RUGBY CCG (05A00),Wolston Surgery,"The Surgery,School Street",Wolston,Coventry,West Midlands,CV8 3HG,3,3
EAST STAFFORDSHIRE CCG (05D00),Abbots Bromley Surgery,The Surgery,School House Lane,Abbots Bromley,"Rugeley, Staffordshire",WS15 3BT,3,3
EAST STAFFORDSHIRE CCG (05D00),Balance Street,Balance Street Practice,Balance Street Health Ctr,"Balance Street, Uttoxeter",Staffordshire,ST14 8JG,6,6
EAST STAFFORDSHIRE CCG (05D00),Dove River,Dove River Practice,Gibb Lane,"Sudbury, Ashbourne",Derbyshire,DE6 5HY,6,6
EAST STAFFORDSHIRE CCG (05D00),Mill View Surgery,,"Mill Street,Rocester",Uttoxeter,Staffordshire,ST14 5JX,3,3
EAST STAFFORDSHIRE CCG (05D00),Northgate Surgery,,Carters Square,Uttoxeter,Staffordshire,ST14 7FN,3,3
EAST STAFFORDSHIRE CCG (05D00),Stapenhill Medical Centre,,"Fyfield Road, Stapenhill",Burton-On-Trent,Staffordshire,DE15 9QD,8,8
EAST STAFFORDSHIRE CCG (05D00),Yoxall,Yoxall Health Centre,"Savey Lane, Yoxall",Burton On Trent,Staffordshire,DE13 8PD,3,3
HEREFORDSHIRE CCG (05F00),Cradley Surgery,,Cradley,Malvern,Worcestershire,WR13 5LT,4,4
HEREFORDSHIRE CCG (05F00),Fownhope Medical Centre,,Lower Island Orchard,Common Hill Lane,"Fownhope, Hereford",HR1 4PZ,4,4
HEREFORDSHIRE CCG (05F00),Golden Valley Practice,The Surgery,Ewyas Harold,Hereford,Herefordshire,HR2 0EU,5,5
HEREFORDSHIRE CCG (05F00),Kington Medical Practice,The Surgery,Eardisley Road,Kington,Herefordshire,HR5 3EA,4,4
HEREFORDSHIRE CCG (05F00),Much Birch Surgery,The Surgery,Much Birch,Hereford,Herefordshire,HR2 8HT,6,6
HEREFORDSHIRE CCG (05F00),Nunwell Surgery,,10 Pump Street,Bromyard,Herefordshire,HR7 4BZ,13,12
HEREFORDSHIRE CCG (05F00),Quay House Medical Centre,,100 Westfaling Street,Hereford,,HR4 0JF,5,5
HEREFORDSHIRE CCG (05F00),The Marches Surgery,,Westfield Walk,Leominster,Herefordshire,HR6 8HD,8,8
HEREFORDSHIRE CCG (05F00),The Mortimer Medical Prac,,Croase Orchard Surgery,"Kingsland, Leominster",Herefordshire,HR6 9QL,10,10
HEREFORDSHIRE CCG (05F00),The Surgery Kingstone,The Surgery,Kingstone,Hereford,Herefordshire,HR2 9HN,6,6
HEREFORDSHIRE CCG (05F00),Weobley Surgery,The Surgery,Gadbridge Road,Weobley,Herefordshire,HR4 8SN,4,4
NORTH STAFFORDSHIRE CCG (05G00),Alton Surgery,Hurston's Lane,Alton,Stoke-On-Trent,Staffordshire,ST10 4AP,2,2
NORTH STAFFORDSHIRE CCG (05G00),Ashley Surgery,,"School Lane, Ashley",Market Drayton,Shropshire,TF9 4LF,3,3
NORTH STAFFORDSHIRE CCG (05G00),Betley Surgery,The Surgery,Main Road,Wrinehill,,CW3 9BL,1,1
NORTH STAFFORDSHIRE CCG (05G00),Dr Do Yates' Practice,Well Street Medical Ctr,"Well Street, Cheadle",Stoke On Trent,Staffordshire,ST10 1EY,5,5
NORTH STAFFORDSHIRE CCG (05G00),Dr Ks Upton's Practice,The Tardis Surgery,"5-9 Queen St, Cheadle",Stoke-On-Trent,Staffordshire,ST10 1BH,2,2
NORTH STAFFORDSHIRE CCG (05G00),Dr P Craven's Practice,Allen Street Surgery,Allen Street,Cheadle,Stoke-On-Trent,ST10 1HJ,3,3
NORTH STAFFORDSHIRE CCG (05G00),Keele Practice,Health Centre,"Keele University, Keele",Newcastle,Staffordshire,ST5 5BG,3,3
NORTH STAFFORDSHIRE CCG (05G00),Moss Lane Surgery,,Moss Lane,Madeley,"Nr.Crewe, Cheshire",CW3 9NQ,4,4
NORTH STAFFORDSHIRE CCG (05G00),Tean Surgery,Old Road,Tean,Stoke-On-Trent,Staffordshire,ST10 4EG,3,3
NORTH STAFFORDSHIRE CCG (05G00),Waterhouses Medical Pract,Waterhouses Medical Ctre,Waterfall Lane,Waterhouses,Stoke-On-Trent,ST10 3HY,3,3
WARWICKSHIRE NORTH CCG (05H00),Hazelwood Group Practice,,27 Parkfield Road,Coleshill,Birmingham,B46 3LD,7,6
WARWICKSHIRE NORTH CCG (05H00),Pear Tree Surgery,,"28 Meadow Close,Kingsbury",Nr.Tamworth,Staffordshire,B78 2NR,8,8
WARWICKSHIRE NORTH CCG (05H00),Polesworth & Dordon Group Practice,The Surgery,162 Long Street,"Dordon,Tamworth",Staffordshire,B78 1QA,7,7
WARWICKSHIRE NORTH CCG (05H00),Station Street Surgery,45 Station Street,Atherstone,,Warwickshire,CV9 1DB,2,2
WARWICKSHIRE NORTH CCG (05H00),The Atherstone Surgery,The Surgery,1 Ratcliffe Road,Atherstone,Warwickshire,CV9 1EU,8,8
REDDITCH AND BROMSGROVE CCG (05J00),Davenal House Surgery,,28 Birmingham Road,Bromsgrove,Worcestershire,B61 0DD,7,7
REDDITCH AND BROMSGROVE CCG (05J00),St. Johns Surgery,St. John's Surgery,5 Kidderminster Road,"Stourbridge Rd,Bromsgrove",Worcestershire,B61 7JJ,13,13
REDDITCH AND BROMSGROVE CCG (05J00),The Glebeland Surgery,,"The Glebe, Belbroughton",Stourbridge,West Midlands,DY9 9TH,4,4
REDDITCH AND BROMSGROVE CCG (05J00),The Ridgeway Surgery,,6-8 Feckenham Road,"Astwood Bank,Redditch",Worcestershire,B96 6DS,5,5
SHROPSHIRE CCG (05N00),Albrighton Medical Pract,,"Shaw Lane, Albrighton",Wolverhampton,,WV7 3DT,9,8
SHROPSHIRE CCG (05N00),Alveley Medical Practice,,The Medical Centre,"Village Road, Alveley","Bridgnorth, Shropshire",WV15 6NG,2,2
SHROPSHIRE CCG (05N00),Beeches Medical Practice,1 Beeches Road,Bayston Hill,Shrewsbury,Shropshire,SY3 0PF,4,4
SHROPSHIRE CCG (05N00),Brown Clee Medical Centre,Station Road,Ditton Priors,Bridgnorth,Shropshire,WV16 6SS,3,3
SHROPSHIRE CCG (05N00),Clive Medical Practice,The Surgery,20 High Street,"Clive, Shrewsbury",Shropshire,SY4 5PS,4,4
SHROPSHIRE CCG (05N00),Craven Arms Surgery,The Surgery,20 Shrewsbury Road,Craven Arms,Shropshire,SY7 9PY,3,3
SHROPSHIRE CCG (05N00),Ellesmere Medical Practice,Ellesmere Medical Pract,Trimpley Street,Ellesmere,Shropshire,SY12 0DB,4,4
SHROPSHIRE CCG (05N00),Hodnet Medical Practice,The Medical Centre,17 Drayton Road,"Hodnet,Market Drayton",Shropshire,TF9 3NF,2,2
SHROPSHIRE CCG (05N00),Knockin Medical Centre,,Knockin,Oswestry,Shropshire,SY10 8HL,4,3
SHROPSHIRE CCG (05N00),Much Wenlock & Cressage Medical Practice,Kingsway Lodge,Much Wenlock,,Shropshire,TF13 6BL,7,6
SHROPSHIRE CCG (05N00),Plas Ffynnon Medical Ctre,,Middleton Road,Oswestry,Shropshire,SY11 2RB,5,5
SHROPSHIRE CCG (05N00),Pontesbury Medical Prac,,"Hall Bank, Pontesbury",Shrewsbury,Shropshire,SY5 0RF,7,7
SHROPSHIRE CCG (05N00),Prescott Surgery,,Baschurch,Shrewsbury,Shropshire,SY4 2DR,7,6
SHROPSHIRE CCG (05N00),Shawbury Medical Practice,The Surgery,"Poynton Rd, Shawbury",Shrewsbury,Shropshire,SY4 4JS,6,5
SHROPSHIRE CCG (05N00),The Meadows Medical Practice,Erw Vane Surgery,Penybont Road,Knighton,Powys,LD7 1HB,3,3
SHROPSHIRE CCG (05N00),Wem And Prees Medical Practice,Wem Medical Practice,"New Street, Wem",Shrewsbury,Shropshire,SY4 5AF,7,7
SHROPSHIRE CCG (05N00),Westbury Medical Centre,,Westbury,Shrewsbury,Shropshire,SY5 9QX,2,2
SHROPSHIRE CCG (05N00),Worthen Medical Practice,The Surgery,Village Hall,"Worthen, Nr.Shrewsbury",Shropshire,SY5 9HT,2,2
SE STAFFS & SEISDON PENINSULAR CCG (05Q00),Claverley,The Surgery,"Spicers Close, Claverley",Wolverhampton,,WV5 7BY,4,4
SE STAFFS & SEISDON PENINSULAR CCG (05Q00),Laurel House Surgery,,12 Albert Road,Tamworth,Staffordshire,B79 7JN,10,9
SE STAFFS & SEISDON PENINSULAR CCG (05Q00),The Langton Medical Group,Langton Grange Med Ctr,Eastern Avenue,Lichfield,Staffordshire,WS13 7FA,11,10
SOUTH WARWICKSHIRE CCG (05R00),Bidford Health Centre,,Stratford Road,Bidford On Avon,Warwickshire,B50 4LX,6,6
SOUTH WARWICKSHIRE CCG (05R00),Bridge House Medical Centre,Bridge House Medical Ctr.,Scholars Lane,Stratford-Upon-Avon,Warwickshire,CV37 6HE,8,8
SOUTH WARWICKSHIRE CCG (05R00),Budbrooke Medical Centre,,"Slade Hill, Hampton Magna",Budbrooke,Warwickshire,CV35 8SA,3,3
SOUTH WARWICKSHIRE CCG (05R00),Croft Medical Centre,,Calder Walk,Leamington Spa,Warwickshire,CV31 1SA,9,9
SOUTH WARWICKSHIRE CCG (05R00),Fenny Compton Surgery,"The Surgery, High Street",Fenny Compton,Southam,Warwickshire,CV47 2YG,4,4
SOUTH WARWICKSHIRE CCG (05R00),Harbury Surgery,,"Mill Street, Harbury",Leamington Spa,Warwickshire,CV33 9HR,3,3
SOUTH WARWICKSHIRE CCG (05R00),Hastings House Surgery,Hastings House,Kineton Road,Wellesbourne,Warwickshire,CV35 9NF,10,10
SOUTH WARWICKSHIRE CCG (05R00),Lapworth Surgery,,Old Warwick Road,Lapworth,Solihull,B94 6LH,2,2
SOUTH WARWICKSHIRE CCG (05R00),Meon Medical Centre,,"Goose Lane, Lower Quinton",Stratford-Upon-Avon,Warwickshire,CV37 8TA,5,5
SOUTH WARWICKSHIRE CCG (05R00),Rother House Medical Centre,Rother House Medical Ctr.,Alcester Road,Stratford-Upon-Avon,Warwickshire,CV37 6PP,10,10
SOUTH WARWICKSHIRE CCG (05R00),Shipston Medical Centre,The Medical Centre,"Badgers Cres,Stratford Rd",Shipston-On-Stour,Warwickshire,CV36 4BQ,9,9
SOUTH WARWICKSHIRE CCG (05R00),Tanworth-In-Arden Med Ctr,Medical Centre,"The Birches, Broad Lane",Tanworth-In-Arden,"Solihull, West Midlands",B94 5DY,4,4
SOUTH WARWICKSHIRE CCG (05R00),Trinity Court Surgery,,Stratford Healthcare,Arden Street,Stratford Upon Avon,CV37 6NQ,7,7
SOUTH WARWICKSHIRE CCG (05R00),Vale Of Red Horse,Kineton Surgery,The Old School,"Market Square, Kineton",Warwickshire,CV35 0LP,7,7
SOUTH WORCESTERSHIRE CCG (05T00),Abbey Medical Practice,,Evesham Medical Centre,"Abbey Lane, Evesham",Worcestershire,WR11 4BS,5,5
SOUTH WORCESTERSHIRE CCG (05T00),Abbottswood Medical Centre,Abbottswood Medical Ctr.,Defford Road,Pershore,Worcestershire,WR10 1HZ,8,8
SOUTH WORCESTERSHIRE CCG (05T00),Barn Close Surgery,,38-40 High Street,Broadway,Worcestershire,WR12 7DT,6,6
SOUTH WORCESTERSHIRE CCG (05T00),Bredon Hill Surgery,,"Main Road,Bredon",Tewkesbury,Gloucestershire,GL20 7QN,5,4
SOUTH WORCESTERSHIRE CCG (05T00),Great Witley Surgery,The Surgery,"Worcester Rd,Great Witley",Worcester,,WR6 6HR,7,7
SOUTH WORCESTERSHIRE CCG (05T00),Grey Gable Surgery,,"High Street, Inkberrow",Worcester,Worcestershire,WR7 4BW,5,5
SOUTH WORCESTERSHIRE CCG (05T00),Haresfield House Surgery,Haresfield Surgery,Turnpike House Med Ctr,37 Newtown Road,Worcester,WR5 1HG,13,13
SOUTH WORCESTERSHIRE CCG (05T00),Knightwick Surgery,The Surgery,Knightwick,Worcester,,WR6 5PH,3,3
SOUTH WORCESTERSHIRE CCG (05T00),Merstow Green Medical Practice,Merstow Green Med Prac,Evesham Medical Centre,"Abbey Lane, Evesham",Worcestershire,WR11 4BS,9,9
SOUTH WORCESTERSHIRE CCG (05T00),Ombersley Medical Centre,,"Main Road, Ombersley",Droitwich,Worcestershire,WR9 0EL,4,4
SOUTH WORCESTERSHIRE CCG (05T00),Pershore Medical Practice,,Queen Elizabeth House,Queen Elizabeth Drive,"Pershore, Worcestershire",WR10 1PX,10,10
SOUTH WORCESTERSHIRE CCG (05T00),Riverside Surgery,The Riverside Surgery,Waterside,Evesham,Worcestershire,WR11 1JP,7,7
SOUTH WORCESTERSHIRE CCG (05T00),Tenbury Surgery,The Surgery,34 Teme Street,Tenbury Wells,Worcestershire,WR15 8AA,6,6
SOUTH WORCESTERSHIRE CCG (05T00),Upton Surgery,,Tunnel Hill,Upton Upon Severn,Worcestershire,WR8 0QL,6,6
STAFFORD AND SURROUNDS CCG (05V00),Brewood Medical Practice,Kiddemore Green Road,Brewood,Stafford,,ST19 9BQ,7,7
STAFFORD AND SURROUNDS CCG (05V00),Crown Surgery,The Crown Surgery,"23 High Street,Eccleshall",Stafford,Staffordshire,ST21 6BW,4,4
STAFFORD AND SURROUNDS CCG (05V00),Gnosall,Gnosall Surgery,Gnosall Health Centre,"Brookhouse Road, Gnosall",Stafford,ST20 0GP,3,3
STAFFORD AND SURROUNDS CCG (05V00),Hazeldene House Surgery,,"Main Road, Great Haywood",Stafford,Staffordshire,ST18 0SU,7,7
STAFFORD AND SURROUNDS CCG (05V00),Weeping Cross Health Centre,Weeping Cross Health Ctr.,"Bodmin Ave, Weeping Cross",Stafford,Staffordshire,ST17 0EG,9,9
STOKE ON TRENT CCG (05W00),Trinity Medical Centre,,Uttoxeter Road,Blythe Bridge,Staffordshire,ST11 9HQ,4,4
TELFORD & WREKIN CCG (05X00),Wellington Road Surgery,The Surgery,Wellington Road,Newport,Shropshire,TF10 7HG,8,8
WALSALL CCG (05Y00),Streets Corner Surgery,The Surgery,Streets Corner,79-81 Lichfield Road,"Walsall Wood, Walsall",WS9 9NP,2,2
WYRE FOREST CCG (06D00),Aylmer Lodge Cookley Partnership,Cookley Surgery,"1 Lea Lane, Cookley",Kidderminster,Worcestershire,DY11 6SF,10,10
WYRE FOREST CCG (06D00),Chaddesley Surgery,"The Surgery, Hemmingway",Chaddesley Corbett,Kidderminster,Worcestershire,DY10 4SF,5,5
WYRE FOREST CCG (06D00),Wolverley Surgery,The Surgery,Wolverley,Kidderminster,Worcestershire,DY11 5TH,2,2
BEDFORDSHIRE CCG (06F00),Asplands Medical Centre,,"Wood Street, Woburn Sands",Milton Keynes,Buckinghamshire,MK17 8QP,8,8
BEDFORDSHIRE CCG (06F00),De Parys Medical Centre,,23 De Parys Avenue,Bedford,Bedfordshire,MK40 2TX,9,9
BEDFORDSHIRE CCG (06F00),Dr Collins And Carragher,109 Station Road,Lower Stondon,Henlow,Bedfordshire,SG16 6JJ,4,4
BEDFORDSHIRE CCG (06F00),Dr Hughes & Partners,The Surgery,Hexton Road,Barton-Le-Clay,Bedfordshire,MK45 4TA,7,7
BEDFORDSHIRE CCG (06F00),Dr Jl Henderson & Partners,The Surgery,29 Bassett Road,Leighton Buzzard,Bedfordshire,LU7 1AR,9,9
BEDFORDSHIRE CCG (06F00),Flitwick Surgery,Highlands,Flitwick,,Bedfordshire,MK45 1DW,7,7
BEDFORDSHIRE CCG (06F00),Great Barford Surgery,26 Silver Street,,Great Barford,Bedfordshire,MK44 3HX,3,3
BEDFORDSHIRE CCG (06F00),Greensands (potton),Greensands Medical Pract.,Brook End Surgery,"Brook End, Potton, Sandy",Bedfordshire,SG19 2QS,7,7
BEDFORDSHIRE CCG (06F00),Grovebury Road Surgery,Grovebury Road,,Leighton Buzzard,Bedfordshire,LU7 4SF,2,2
BEDFORDSHIRE CCG (06F00),Harrold Medical Practice,,"Peach's Close, Harrold",Bedford,Bedfordshire,MK43 7DX,3,3
BEDFORDSHIRE CCG (06F00),Houghton Close Surgery,,1 Houghton Close,Ampthill,Bedfordshire,MK45 2TG,8,7
BEDFORDSHIRE CCG (06F00),Ivel Medical Centre,The Ivel Medical Centre,Chestnut Avenue,Biggleswade,Bedfordshire,SG18 0RA,8,7
BEDFORDSHIRE CCG (06F00),King Street Surgery,273 Bedford Road,Kempston,Bedford,Bedfordshire,MK42 8QD,11,11
BEDFORDSHIRE CCG (06F00),Kings Road Surgery,The Surgery,27b Kings Road,Sandy,Bedfordshire,SG19 1EJ,3,3
BEDFORDSHIRE CCG (06F00),Larksfield Surgery Medical Partnership,Larksfield Surgery,"Arlesey Road, Stotfold",Hitchin,Hertfordshire,SG5 4HB,6,6
BEDFORDSHIRE CCG (06F00),Leighton Road Surgery,,"1 Leighton Road, Linslade",Leighton Buzzard,Bedfordshire,LU7 1LB,6,6
BEDFORDSHIRE CCG (06F00),Linden Road Surgery,The Surgery,13 Linden Road,Bedford,,MK40 2DQ,2,2
BEDFORDSHIRE CCG (06F00),Priory Medical Centre,Priory Medical Practice,48 The Glebe,Clapham,Bedfordshire,MK41 6GA,4,4
BEDFORDSHIRE CCG (06F00),Saffron Road Surgery,The Health Centre,Saffron Road,Biggleswade,Bedfordshire,SG18 8DJ,6,6
BEDFORDSHIRE CCG (06F00),Sandy Health Centre,,Northcroft,Sandy,Bedfordshire,SG19 1JQ,6,6
BEDFORDSHIRE CCG (06F00),Sharnbrook Surgery,The Surgery,Templars Way,Sharnbrook,Bedfordshire,MK44 1PZ,4,4
CAMBRIDGESHIRE AND PETERBOROUGH CCG (06H00),Ailsworth Medical Centre,,"32 Main Street, Ailsworth",Peterborough,Cambridgeshire,PE5 7AF,2,2
CAMBRIDGESHIRE AND PETERBOROUGH CCG (06H00),Alconbury Surgery,,"School Lane,Alconbury",Huntingdon,Cambridgeshire,PE28 4EQ,7,7
CAMBRIDGESHIRE AND PETERBOROUGH CCG (06H00),Barley Surgery,,"High St, Barley",Royston,Hertfordshire,SG8 8HY,2,2
CAMBRIDGESHIRE AND PETERBOROUGH CCG (06H00),Bottisham Medical Practice,Bottisham Medical Pract,"Tunbridge Lane,Bottisham",Cambridge,Cambridgeshire,CB25 9DU,9,9
CAMBRIDGESHIRE AND PETERBOROUGH CCG (06H00),Bourn Surgery,,"25 Alms Hill,Bourn",Cambridge,Cambridgeshire,CB23 2SH,5,5
CAMBRIDGESHIRE AND PETERBOROUGH CCG (06H00),Buckden Surgery,The Surgery,Mayfield,Buckden,Cambridgeshire,PE19 5SZ,5,5
CAMBRIDGESHIRE AND PETERBOROUGH CCG (06H00),Burwell Surgery,The Burwell Surgery,"Newmarket Road,Burwell",Cambridge,,CB25 0AE,6,6
CAMBRIDGESHIRE AND PETERBOROUGH CCG (06H00),Church Street Health Centre,Church Street Health Ctr,"6a Church St, Somersham",Huntingdon,Cambridgeshire,PE28 3EG,2,2
CAMBRIDGESHIRE AND PETERBOROUGH CCG (06H00),Clarkson Surgery,,De Havilland Road,Wisbech,Cambridgeshire,PE13 3AN,7,7
CAMBRIDGESHIRE AND PETERBOROUGH CCG (06H00),Comberton Surgery,,"58 Green End,Comberton",Cambridge,Cambridgeshire,CB23 7DY,9,9
CAMBRIDGESHIRE AND PETERBOROUGH CCG (06H00),Cromwell Place Surgery,,"Cromwell Place,St.Ives",Huntingdon,Cambridgeshire,PE27 5JD,7,7
CAMBRIDGESHIRE AND PETERBOROUGH CCG (06H00),Doddington Medical Centre,,"11d Benwick Rd,Doddington",March,Cambridgeshire,PE15 0TG,5,5
CAMBRIDGESHIRE AND PETERBOROUGH CCG (06H00),George Clare Surgery,,"Swan Drive,New Road",Chatteris,Cambridgeshire,PE16 6EX,11,11
CAMBRIDGESHIRE AND PETERBOROUGH CCG (06H00),Granta Medical Practices,London Road,Sawston,Cambridge,Cambridgeshire,CB22 3HU,19,19
CAMBRIDGESHIRE AND PETERBOROUGH CCG (06H00),Great Staughton Surgery,The Surgery,57 The Highway,Great Staughton,"Huntingdon,Cambridgeshire",PE19 5DA,2,2
CAMBRIDGESHIRE AND PETERBOROUGH CCG (06H00),Haddenham Surgery,The Surgery,"The Green, Haddenham",Ely,Cambridgeshire,CB6 3TA,6,6
CAMBRIDGESHIRE AND PETERBOROUGH CCG (06H00),Harston Surgery,,"11 Church Street, Harston",Cambridge,,CB22 7NP,4,4
CAMBRIDGESHIRE AND PETERBOROUGH CCG (06H00),Huntingdon Road Surgery,,1 Huntingdon Road,Cambridge,,CB3 0DB,9,9
CAMBRIDGESHIRE AND PETERBOROUGH CCG (06H00),Jenner Health Centre,,"Turners Lane, Whittlesey",Peterborough,Cambridgeshire,PE7 1EJ,6,6
CAMBRIDGESHIRE AND PETERBOROUGH CCG (06H00),Kimbolton Medical Centre,Hunters Way,"Newtown,Kimbolton",Huntingdon,Cambridgeshire,PE28 0JF,7,7
CAMBRIDGESHIRE AND PETERBOROUGH CCG (06H00),Manea Surgery,The Surgery,"4 Cathedral View, Manea",March,Cambridgeshire,PE15 0GN,6,6
CAMBRIDGESHIRE AND PETERBOROUGH CCG (06H00),Milton Surgery,,Coles Road,Milton,Cambridgeshire,CB24 6BL,2,2
CAMBRIDGESHIRE AND PETERBOROUGH CCG (06H00),Moat House Surgery,The Moat House Surgery,"Beech Close, Warboys",Huntingdon,Cambridgeshire,PE28 2RQ,6,6
CAMBRIDGESHIRE AND PETERBOROUGH CCG (06H00),New Queen Street Surgery,The New Queen St. Surgery,Whittlesey,Peterborough,Cambridgeshire,PE7 1AT,11,11
CAMBRIDGESHIRE AND PETERBOROUGH CCG (06H00),North Brink Practice,,7 North Brink,Wisbech,Cambridgeshire,PE13 1JU,8,8
CAMBRIDGESHIRE AND PETERBOROUGH CCG (06H00),Northcote House Surgery,,"8 Broadleas, St.Ives",Huntingdon,Cambridgeshire,PE27 5PT,3,3
CAMBRIDGESHIRE AND PETERBOROUGH CCG (06H00),Old Exchange Surgery,The Old Tel Exchange,"East Street,St Ives",Huntingdon,Cambridgeshire,PE27 5PB,1,1
CAMBRIDGESHIRE AND PETERBOROUGH CCG (06H00),Old Fletton Surgery,,"Rectory Gdns, Old Fletton",Peterborough,Cambridgeshire,PE2 8AY,8,8
CAMBRIDGESHIRE AND PETERBOROUGH CCG (06H00),"Orchard Surgery, St Ives",The Orchard Surgery,"Constable Road,St Ives",Huntingdon,Cambridgeshire,PE27 3ER,3,3
CAMBRIDGESHIRE AND PETERBOROUGH CCG (06H00),"Orchard Surgery,Melbourn",Orchard Surgery,"New Road, Melbourn",Royston,Hertfordshire,SG8 6BX,6,6
CAMBRIDGESHIRE AND PETERBOROUGH CCG (06H00),Oundle,The Surgery,Glapthorn Road,Oundle,Peterborough,PE8 4JA,7,7
CAMBRIDGESHIRE AND PETERBOROUGH CCG (06H00),Over Surgery,,"1 Drings Close, Over",Cambridge,,CB24 5NZ,4,4
CAMBRIDGESHIRE AND PETERBOROUGH CCG (06H00),Papworth Surgery,The Surgery,Chequers Lane,Papworth Everard,Cambridgeshire,CB23 3QQ,5,5
CAMBRIDGESHIRE AND PETERBOROUGH CCG (06H00),Parkhall Surgery,,Parkhall Road,"Somersham, Huntingdon",Cambridgeshire,PE28 3EU,4,4
CAMBRIDGESHIRE AND PETERBOROUGH CCG (06H00),Parson Drove Surgery,The Surgery,Main Road,"Parson Drove,Wisbech",Cambridgeshire,PE13 4LF,3,3
CAMBRIDGESHIRE AND PETERBOROUGH CCG (06H00),Priors Field Surgery,,"24 High Street, Sutton",Ely,Cambridgeshire,CB6 2RB,6,6
CAMBRIDGESHIRE AND PETERBOROUGH CCG (06H00),Rainbow Surgery,,1 Stocking Fen Road,"Ramsey,Huntingdon",Cambridgeshire,PE26 1SA,4,4
CAMBRIDGESHIRE AND PETERBOROUGH CCG (06H00),Ramsey Health Centre,,"Mews Close, Whytefield Rd","Ramsey, Huntingdon",Cambridgeshire,PE26 1BP,7,7
CAMBRIDGESHIRE AND PETERBOROUGH CCG (06H00),Roysia Surgery,,Burns Road,Royston,Hertfordshire,SG8 5PT,5,5
CAMBRIDGESHIRE AND PETERBOROUGH CCG (06H00),Spinney Surgery,The Spinney Surgery,"Ramsey Road,St.Ives",Huntingdon,Cambridgeshire,PE27 3TP,11,11
CAMBRIDGESHIRE AND PETERBOROUGH CCG (06H00),St Mary's Surgery,St.Mary's Surgery,37 St.Mary's Street,Ely,Cambridgeshire,CB7 4HF,12,12
CAMBRIDGESHIRE AND PETERBOROUGH CCG (06H00),St. George's Medical Centre,St George's Medical Ctr,"Parsons Lane,Littleport",Ely,Cambridgeshire,CB6 1JU,6,6
CAMBRIDGESHIRE AND PETERBOROUGH CCG (06H00),Staploe Medical Centre,The Staploe Medical Ctr.,"Brewhouse Lane, Soham",Ely,Cambridgeshire,CB7 5JD,13,13
CAMBRIDGESHIRE AND PETERBOROUGH CCG (06H00),Swavesey Surgery,,"58 Boxworth End,Swavesey",Cambridge,,CB24 4RA,1,1
CAMBRIDGESHIRE AND PETERBOROUGH CCG (06H00),The Health Centre Practice,Royston Health Centre,Melbourn Street,Royston,Hertfordshire,SG8 7BS,8,8
CAMBRIDGESHIRE AND PETERBOROUGH CCG (06H00),Thorney Medical Practice,The Medical Centre,"Wisbech Road, Thorney","Thorney, Peterborough",Cambridgeshire,PE6 0SD,6,6
CAMBRIDGESHIRE AND PETERBOROUGH CCG (06H00),Wansford,Wansford Surgery,"Old Hill Farm, Yarwell Rd",Wansford,,PE8 6PL,5,5
CAMBRIDGESHIRE AND PETERBOROUGH CCG (06H00),Waterbeach Surgery,Rosalind Franklin House,"Bannold Road,Waterbeach",Cambridge,Cambridgeshire,CB25 9LQ,5,5
CAMBRIDGESHIRE AND PETERBOROUGH CCG (06H00),Wellside Surgery,,"45 High Street, Sawtry",Huntingdon,Cambridgeshire,PE28 5SU,7,7
CAMBRIDGESHIRE AND PETERBOROUGH CCG (06H00),Willingham Medical Practice,Willingham Medical Pract,"52 Long Lane,Willingham",Cambridge,,CB24 5LB,5,5
EAST AND NORTH HERTFORDSHIRE CCG (06K00),Ashwell Surgery,,Lawyers Close,"Gardiners Lane, Ashwell","Baldock, Hertfordshire",SG7 5PY,5,5
EAST AND NORTH HERTFORDSHIRE CCG (06K00),Bridge Cottage Surgery,,41 High Street,Welwyn,Hertfordshire,AL6 9EF,10,10
EAST AND NORTH HERTFORDSHIRE CCG (06K00),Courtenay House Surgery,Bancroft Court,30-35 Bancroft,Hitchin,Hertfordshire,SG5 1LH,4,4
EAST AND NORTH HERTFORDSHIRE CCG (06K00),Haileybury College,,Hertford Heath,Hertford,Hertfordshire,SG13 7NU,1,1
EAST AND NORTH HERTFORDSHIRE CCG (06K00),King George Surgery,Health First Med.Group,King George Surgery,135 High Street,"Stevenage, Hertfordshire",SG1 3HT,10,10
EAST AND NORTH HERTFORDSHIRE CCG (06K00),Manor House Surgery,,Emperors Gate,"Chells Manor, Stevenage",Hertfordshire,SG2 7QX,1,1
EAST AND NORTH HERTFORDSHIRE CCG (06K00),Much Hadham Health Centre,The Health Centre,Ash Meadow,Much Hadham,Hertfordshire,SG10 6DE,3,3
EAST AND NORTH HERTFORDSHIRE CCG (06K00),St Elizabeths Centre,Much Hadham,,Hertfordshire,,SG10 6EW,1,1
EAST AND NORTH HERTFORDSHIRE CCG (06K00),Watton Place Clinic,Watton Place House,High Street,Watton-At-Stone,Hertfordshire,SG14 3SY,2,2
EAST AND NORTH HERTFORDSHIRE CCG (06K00),Whitwell Surgery,60 High Street,Whitwell,Hitchin,Hertfordshire,SG4 8AG,1,1
IPSWICH AND EAST SUFFOLK CCG (06L00),Bildeston Health Centre,The Health Centre,"High Street, Bildeston",Ipswich,,IP7 7EX,4,4
IPSWICH AND EAST SUFFOLK CCG (06L00),Combs Ford Surgery,,Combs Lane,Stowmarket,Suffolk,IP14 2SY,5,5
IPSWICH AND EAST SUFFOLK CCG (06L00),Debenham Group Practice,20 Low Road,,Debenham,Suffolk,IP14 6QU,10,10
IPSWICH AND EAST SUFFOLK CCG (06L00),Eye Health Centre,The Health Centre,Castleton Way,Eye,Suffolk,IP23 7DD,3,3
IPSWICH AND EAST SUFFOLK CCG (06L00),Framfield House Surgery,Framfield Medical Centre,Ipswich Road,Woodbridge,Suffolk,IP12 4FD,9,9
IPSWICH AND EAST SUFFOLK CCG (06L00),Framlingham Surgery,,"Pembroke Rd,Framlingham",Woodbridge,Suffolk,IP13 9HA,7,7
IPSWICH AND EAST SUFFOLK CCG (06L00),Fressingfield Medical Centre,Fressingfield Medical Ctr,"New Street, Fressingfield",Eye,Suffolk,IP21 5PJ,4,4
IPSWICH AND EAST SUFFOLK CCG (06L00),Hadleigh Boxford Group Practice,Hadleigh Health Centre,"Market Place, Hadleigh",Ipswich,Suffolk,IP7 5DN,12,12
IPSWICH AND EAST SUFFOLK CCG (06L00),Ixworth Surgery,,"Peddars Close, Ixworth",Bury St. Edmunds,Suffolk,IP31 2HD,8,8
IPSWICH AND EAST SUFFOLK CCG (06L00),Leiston Surgery,The Surgery,Main Street,Leiston,Suffolk,IP16 4ES,8,8
IPSWICH AND EAST SUFFOLK CCG (06L00),Little St John Street Surgery,7 Little St.John Street,Woodbridge,Suffolk,,RP12 1EE,6,6
IPSWICH AND EAST SUFFOLK CCG (06L00),Martlesham Surgery,Martlesham Health Surgery,23 The Square,Martlesham,Suffolk,IP5 3SL,3,3
IPSWICH AND EAST SUFFOLK CCG (06L00),Mendlesham Health Centre,The Health Centre,"Chapel Road, Mendlesham",Stowmarket,Suffolk,IP14 5SQ,6,6
IPSWICH AND EAST SUFFOLK CCG (06L00),Needham Market Country Practice,Needham Market Country Pr,"Barking Rd,Needham Market",Ipswich,,IP6 8EZ,7,7
IPSWICH AND EAST SUFFOLK CCG (06L00),Saxmundham Health Centre,,"Lambsale Mdw, N.Entrance",Saxmundham,Suffolk,IP17 1DY,9,9
IPSWICH AND EAST SUFFOLK CCG (06L00),Stowhealth,"Stowhealth, Violet House",Violet Hill Road,Stowmarket,Suffolk,IP14 1NL,10,10
IPSWICH AND EAST SUFFOLK CCG (06L00),The Barham & Claydon Surgery,The Barham & Claydon Surg,"Norwich Road, Barham",Ipswich,,IP6 0DJ,2,2
IPSWICH AND EAST SUFFOLK CCG (06L00),The Holbrook And Shotley Practice,The Surgery,"The Street, Holbrook",Ipswich,,IP9 2QS,7,7
IPSWICH AND EAST SUFFOLK CCG (06L00),The Peninsula Practice,,Mill Hoo,Alderton,Suffolk,IP12 3DA,3,3
IPSWICH AND EAST SUFFOLK CCG (06L00),Wickham Market Medical Centre,Wickham Market Med.Ctr.,"Chapel Lane, Wickham Mrkt",Woodbridge,Suffolk,IP13 0SB,8,8
GREAT YARMOUTH & WAVENEY CCG (06M00),Bungay Medical Centre,,28 St Johns Road,Bungay,Suffolk,NR35 1LP,8,8
GREAT YARMOUTH & WAVENEY CCG (06M00),Coastal Villages Practice,,Ormesby Village Surgery,"1 Kings Court, Hemsby","Great Yarmouth, Norfolk",NR30 5NE,14,14
GREAT YARMOUTH & WAVENEY CCG (06M00),Cutlers Hill Surgery,,Bungay Road,Halesworth,Suffolk,IP19 8SG,9,9
GREAT YARMOUTH & WAVENEY CCG (06M00),Fleggburgh Surgery,The Surgery,"Mill Lane, Fleggburgh",Great Yarmouth,Norfolk,NR29 3AW,1,1
GREAT YARMOUTH & WAVENEY CCG (06M00),Longshore Surgeries,Kessingland Surgery,"Field Lane, Kessingland",Lowestoft,Suffolk,NR33 7QA,5,5
GREAT YARMOUTH & WAVENEY CCG (06M00),Sole Bay H/C,,Teal Close,Reydon,Suffolk,IP18 6GY,5,5
HERTS VALLEYS CCG (06N00),New Road Surgery,"The Surgery, 166 New Road",Croxley Green,Rickmansworth,Hertfordshire,WD3 3HD,7,7
HERTS VALLEYS CCG (06N00),Rothschild House Surgery,,Chapel Street,Tring,Hertfordshire,HP23 6PU,11,11
HERTS VALLEYS CCG (06N00),The Surgery - Dr. Sepai,The Surgery,"1 Hicks Road, Markyate",St Albans,Hertfordshire,AL3 8LJ,2,2
LUTON CCG (06P00),Sundon Medical Centre,Sundon Park Hc,142/144 Sundon Park Road,"Sundon Park, Luton",Bedfordshire,LU3 3AH,4,4
MID ESSEX CCG (06Q00),Baddow Village Surgery,Longmead Avenue,Great Baddow,Chelmsford,Essex,CM2 7EZ,8,8
MID ESSEX CCG (06Q00),Beacon Health Group,Eves Corner,,Danbury,Essex,CM3 4QA,10,10
MID ESSEX CCG (06Q00),Blackwater Medical Centre,,Princes Road,Maldon,Essex,CM9 5GP,19,19
MID ESSEX CCG (06Q00),Blandford Medical Centre,Mace Avenue,,Braintree,Essex,CM7 2AE,9,9
MID ESSEX CCG (06Q00),Burnham Surgery,The Burnham Surgery,Foundry Lane,Burnham-On-Crouch,Essex,CM0 8SJ,4,4
MID ESSEX CCG (06Q00),Castle Hedingham Surgery,10a Falcon Square,Castle Hedingham,Essex,,CO9 3BY,2,2
MID ESSEX CCG (06Q00),Fern House Surgery,,129 Newland Street,Witham,Essex,CM8 1BH,9,9
MID ESSEX CCG (06Q00),Hilton House,"Hilton Hse,77 Swan Street",Sible Hedingham,Halstead,Essex,CO9 3HT,4,4
MID ESSEX CCG (06Q00),Little Waltham & Gt Notley Surgery,Little Waltham Surgery,30 Brook Hill,Little Waltham,"Chelmsford, Essex",CM3 3LL,14,14
MID ESSEX CCG (06Q00),Longfield Medical Centre,,Princes Road,Maldon,Essex,CM9 5DF,19,19
MID ESSEX CCG (06Q00),Mount Chambers Medical Practice,Mount Chambers Med Pract,92 Coggeshall Road,Braintree,Essex,CM7 9BY,9,9
MID ESSEX CCG (06Q00),Stock Surgery,Common Road,,Stock,Essex,CM4 9NF,4,4
MID ESSEX CCG (06Q00),Sutherland Lodge Surgery,,115 Baddow Road,Chelmsford,Essex,CM2 7PY,10,9
MID ESSEX CCG (06Q00),The Castle Surgery,10 Falcon Square,Castle Hedingham,Essex,,CO9 3BY,2,2
MID ESSEX CCG (06Q00),The Coggeshall Surgery,,Stoneham Street,Coggeshall,Essex,CO6 1UH,2,2
MID ESSEX CCG (06Q00),The Dengie Medical Partnership,The Tillingham Med Centre,"61 South St, Tillingham",Southminster,Essex,CM0 7TH,4,4
MID ESSEX CCG (06Q00),The Freshford Practice,The Freshwell Health Ctr.,Wethersfield Road,"Finchingfield,Braintree",Essex,CM7 4BQ,8,8
MID ESSEX CCG (06Q00),The Laurels Surgery,,"Juniper Road, Boreham",Chelmsford,Essex,CM3 3DX,8,7
MID ESSEX CCG (06Q00),The Pump House Surgery,Nonancourt Way,Off Massingham Drive,Earls Colne,Essex,CO6 2SW,5,5
MID ESSEX CCG (06Q00),The Tollesbury Practice,"The Surgery, 25 High St",Tollesbury,Maldon,Essex,CM9 8RG,3,3
MID ESSEX CCG (06Q00),The Trinity Medical Practice,1 The Drive,Mayland,Chelmsford,Essex,CM3 6AB,2,2
MID ESSEX CCG (06Q00),The Writtle Surgery,,"16a Lordship Rd, Writtle",Chelmsford,Essex,CM1 3EH,7,6
MID ESSEX CCG (06Q00),William Fisher Med.Ctr.,,High Street,Southminster,Essex,CM0 7AY,4,4
MID ESSEX CCG (06Q00),Wyncroft Surgery,,3 Priory Road,Bicknacre,Essex,CM3 4EY,1,1
NORTH EAST ESSEX CCG (06T00),Colne Medical Centre,,40 Station Road,Brightlingsea,"Colchester,Essex",CO7 0DT,5,5
NORTH EAST ESSEX CCG (06T00),Fronks Rd Family Surgery,77 Fronks Road,Dovercourt,Harwich,Essex,CO12 3RS,4,4
NORTH EAST ESSEX CCG (06T00),Harewood Surgery,Harwich Road,"Harwich Road,Great Oakley",Harwich,Essex,CO12 5AD,3,3
NORTH EAST ESSEX CCG (06T00),Lawford Surgery,The Surgery,"2 Edgefield Ave,Lawford",Manningtree,Essex,CO11 2HD,2,2
NORTH EAST ESSEX CCG (06T00),Mayflower Medical Centre,419 Main Road,Dovercourt,Harwich,Essex,CO12 4EX,14,14
NORTH EAST ESSEX CCG (06T00),Mill Road Surgery,47 Mill Road,Mile End,Colchester,Essex,CO4 5LE,9,9
NORTH EAST ESSEX CCG (06T00),North Hill Medical Group,,18 North Hill,Colchester,Essex,CO1 1DZ,11,11
NORTH EAST ESSEX CCG (06T00),Portland Medical Practice,Ypres Road,,Colchester,Essex,CO2 7UW,3,3
NORTH EAST ESSEX CCG (06T00),Rowhedge Surgery,,7 Rectory Road,"Rowhedge, Colchester",Essex,CO5 7HP,6,6
NORTH EAST ESSEX CCG (06T00),The Ardleigh Surgery,The Surgery,"Dedham Road, Ardleigh",Colchester,Essex,CO7 7LD,5,5
NORTH EAST ESSEX CCG (06T00),The Riverside Health Ctr,,Station Road,Manningtree,Essex,CO11 1AA,4,4
NORTH EAST ESSEX CCG (06T00),Thorpe Surgery,"The Surgery, High Street",Thorpe-Le-Soken,Clacton On Sea,Essex,CO16 0EA,4,4
NORTH EAST ESSEX CCG (06T00),Winstree Medical Practice,84 Winstree Road,Stanway,Colchester,Essex,CO3 0PZ,4,4
NORTH NORFOLK CCG (06V00),Acle Medical Partnership,,"Bridewell Lane, Acle",Norwich,Norfolk,NR13 3RA,7,7
NORTH NORFOLK CCG (06V00),Aldborough Surgery,The Surgery,"Chapel Road, Aldborough",Norwich,Norfolk,NR11 7NP,4,4
NORTH NORFOLK CCG (06V00),Birchwood Medical Practice,Birchwood Surgery,Park Lane,North Walsham,Norfolk,NR28 0BQ,8,8
NORTH NORFOLK CCG (06V00),Blofield Surgery,The Blofield Surgery,Plantation Road,Blofield,Norfolk,NR13 4PL,5,5
NORTH NORFOLK CCG (06V00),Brundall Medical Partnership,The Brundall Medical Ctr,"The Dales, The Street",Brundall,Norwich,NR13 5RP,6,6
NORTH NORFOLK CCG (06V00),Coltishall Medical Practice,Coltishall Medical Pract.,"St.John's Cl, Rectory Rd",Coltishall,Norwich,NR12 7HL,6,6
NORTH NORFOLK CCG (06V00),Cromer Group Practice,The Surgery,48 Overstrand Road,Cromer,Norfolk,NR27 0AJ,5,5
NORTH NORFOLK CCG (06V00),Drayton & St Faiths Medical Practice,Drayton & St Faith's M/P,"8 Manor Farm Cl,Drayton",Norwich,Norfolk,NR8 6EE,11,11
NORTH NORFOLK CCG (06V00),Fakenham Medical Practice,,"Meditrina Hse,Trinity Rd",Fakenham,Norfolk,NR21 8SY,12,12
NORTH NORFOLK CCG (06V00),Holt Medical Practice,Kelling Hospital,Old Cromer Road,"High Kelling, Holt",Norfolk,NR25 6QA,11,11
NORTH NORFOLK CCG (06V00),Hoveton & Wroxham Medical Centre,Hoveton & Wroxham Med Ctr,"Stalham Road, Hoveton",Norwich,Norfolk,NR12 8DU,7,7
NORTH NORFOLK CCG (06V00),Ludham And Stalham Green Surgeries,The Surgery,"Staithe Road, Ludham",Great Yarmouth,Norfolk,NR29 5AB,4,4
NORTH NORFOLK CCG (06V00),Market Surgery,The Market Surgery,26 Norwich Road,Aylsham,Norwich,NR11 6BW,7,7
NORTH NORFOLK CCG (06V00),Mundesley Medical Centre,,Munhaven Close,Mundesley On Sea,Norfolk,NR11 8AR,6,6
NORTH NORFOLK CCG (06V00),Paston Surgery,,9-11 Park Lane,North Walsham,Norfolk,NR28 0BQ,7,7
NORTH NORFOLK CCG (06V00),Reepham & Aylsham Medical Practice,The Surgery,60 Hungate Street,Reepham,Norwich,NR11 6AA,5,5
NORTH NORFOLK CCG (06V00),Sheringham Medical Practice,The Health Centre,Cromer Road,Sheringham,Norfolk,NR26 8RT,7,6
NORTH NORFOLK CCG (06V00),Stalham Staithe Surgery,The Staithe Surgery,Lower Staithe Road,Stalham,Norfolk,NR12 9BU,7,7
NORTH NORFOLK CCG (06V00),Wells Health Centre,The Health Centre,Bolts Close,Wells-Next-The-Sea,Norfolk,NR23 1JP,3,3
NORWICH CCG (06W00),Taverham Partnership,The Taverham Partnership,"Taverham Surg, Sandy Lne",Taverham,Norwich,NR8 6JR,5,5
SOUTH NORFOLK CCG (06Y00),Attleborough Surgery,,Station Road,Attleborough,Norfolk,NR17 2AS,10,10
SOUTH NORFOLK CCG (06Y00),Chet Valley Medical Practice,George House,40-48 George Lane,Loddon,Norfolk,NR14 6QH,8,8
SOUTH NORFOLK CCG (06Y00),Church Hill Surgery,,"Station Rd, Pulham Market",Diss,Norfolk,IP21 4TX,4,4
SOUTH NORFOLK CCG (06Y00),E Harling & Kenninghall Medical Practice,The Surgery,Market Street,East Harling,Norfolk,NR16 2AD,7,7
SOUTH NORFOLK CCG (06Y00),Elmham Surgery,The Elmham Surgery,"59 Holt Rd, North Elmham",East Dereham,Norfolk,NR20 5JS,8,8
SOUTH NORFOLK CCG (06Y00),Harleston Medical Practice,Harleston Medical Pract.,Bullock Fair Close,Harleston,Norfolk,IP20 9AT,4,4
SOUTH NORFOLK CCG (06Y00),Heathgate Medical Practice,Heathgate Surgery,"The Street,Poringland",Norwich,Norfolk,NR14 7JT,6,6
SOUTH NORFOLK CCG (06Y00),Hingham Surgery,Hingham Surgey,"Hardingham St, Hingham",Norwich,Norfolk,NR9 4JB,6,6
SOUTH NORFOLK CCG (06Y00),Humbleyard Practice,The Surgery,"The Common, Mulbarton",Norwich,Norwich,NR9 3AB,14,14
SOUTH NORFOLK CCG (06Y00),Lawns Practice,The Lawns Medical Pract.,Mount Street,Diss,Norfolk,IP22 4WG,5,5
SOUTH NORFOLK CCG (06Y00),Long Stratton Medical Partnership,Swan Lane Surgery,Long Stratton,Norwich,Norfolk,NR15 2UY,8,8
SOUTH NORFOLK CCG (06Y00),Mattishall Surgery,,"15 Dereham Rd, Mattishall",East Dereham,,NR20 3QA,9,9
SOUTH NORFOLK CCG (06Y00),Old Mill And Millgates Medical Practice,Old Mill Surgery,"Hardley Road, Poringland",Norwich,Norfolk,NR14 7FA,8,8
SOUTH NORFOLK CCG (06Y00),Parish Fields Practice,,The Health Centre,"Mount Street, Diss",Norfolk,IP22 4WG,5,5
SOUTH NORFOLK CCG (06Y00),Roundwell Medical Centre,25 Dr Torrens Way,Costessey,Norwich,Norfolk,NR5 0GB,8,8
SOUTH NORFOLK CCG (06Y00),Shipdham Surgery,,"Chapel Street, Shipdham",Thetford,Norfolk,IP25 7LA,3,3
SOUTH NORFOLK CCG (06Y00),Theatre Royal Surgery,,Theatre Street,Dereham,Norfolk,NR19 2EN,5,5
SOUTH NORFOLK CCG (06Y00),Windmill Surgery,,London Road,Wymondham,Norfolk,NR18 0AF,4,4
THURROCK CCG (07G00),Dr Amanda M Davies & Dr C S Jayakumar,Pear Tree Surgery,Pear Tree Close,South Ockendon,Essex,RM15 6PR,5,5
THURROCK CCG (07G00),Dr D'mello Jmt Practice,The Surgery,"63 Rowley Road, Orsett",Grays,Essex,RM16 3ET,7,6
THURROCK CCG (07G00),Dr Pattara & Dr Raja,The Surgery,High Road,Horndon-On-The-Hill,Essex,SS17 8LB,3,3
WEST ESSEX CCG (07H00),Angel Lane Surgery,,Angel Lane,Great Dunmow,Essex,CM6 1AQ,5,5
WEST ESSEX CCG (07H00),Crocus Medical Practice,,18 Castle Street,Saffron Walden,Essex,CB10 1BP,7,7
WEST ESSEX CCG (07H00),Elsenham Surgery,,"Station Road, Elsenham",Bishops Stortford,Hertfordshire,CM22 6LA,6,6
WEST ESSEX CCG (07H00),John Tasker House Surgery,John Tasker House,56 New Street,Great Dunmow,Essex,CM6 1BH,10,10
WEST ESSEX CCG (07H00),Newport Surgery,The Surgery,"Frambury Lane, Newport",Saffron Walden,Essex,CB11 3PY,8,8
WEST ESSEX CCG (07H00),Ongar Health Centre,Ongar War Memorial Mc,Fyfield Road,Ongar,Essex,CM5 0AL,9,9
WEST ESSEX CCG (07H00),Steeple Bumpstead Surgery,10 Bower Hall Drive,Steeple Bumpstead,Steeple Bumpstead,Suffolk,CB9 7ED,2,2
WEST ESSEX CCG (07H00),Thaxted Surgery,The Surgery,Margaret Street,Thaxted,Essex,CM6 2QN,7,7
WEST ESSEX CCG (07H00),The Eden Surgeries,Broomfields,Hatfield Heath,Bishops Stortford,Hertfordshire,CM22 7EH,6,6
WEST ESSEX CCG (07H00),The Gold Street Surgery,,Gold Street,Saffron Walden,Essex,CB10 1EJ,8,8
WEST ESSEX CCG (07H00),The Ongar Surgery,,High Street,Ongar,Essex,CM5 9AA,2,2
WEST NORFOLK CCG (07J00),Boughton Surgery,The Surgery,Chapel Road,"Boughton, Kings Lynn",Norfolk,PE33 9AG,2,2
WEST NORFOLK CCG (07J00),Bridge Street Surgery,The Bridge Street Surgery,30/32 Bridge Street,Downham Market,Norfolk,PE38 9DH,8,8
WEST NORFOLK CCG (07J00),Burnham Surgery,The Burnhams Surgery,Church Walk,Burnham Market,Norfolk,PE31 8DH,4,4
WEST NORFOLK CCG (07J00),Campingland Surgery,The Campingland Surgery,Campingland,Swaffham,Norfolk,PE37 7RD,8,8
WEST NORFOLK CCG (07J00),Feltwell Surgery,The Surgery,Old Brandon Road,"Feltwell,Thetford",Norfolk,IP26 4AY,4,4
WEST NORFOLK CCG (07J00),Great Massingham Surgery,,Station Road,Great Massingham,Norfolk,PE32 2JQ,5,5
WEST NORFOLK CCG (07J00),Grimston Medical Centre,,"Congham Rd,Grimston",King's Lynn,Norfolk,PE32 1DW,3,3
WEST NORFOLK CCG (07J00),Heacham Group Practice,,"45 Station Road, Heacham",Kings Lynn,Norfolk,PE31 7EX,6,6
WEST NORFOLK CCG (07J00),Howdale Surgery,The Howdale Surgery,Howdale Road,Downham Market,Norfolk,PE38 9AF,6,5
WEST NORFOLK CCG (07J00),Litcham Health Centre,,"Manor Drive, Litcham",Kings Lynn,Norfolk,PE32 2NW,5,5
WEST NORFOLK CCG (07J00),Manor Farm Medical Centre,,Mangate Street,Swaffham,Norfolk,PE37 7QN,5,5
WEST NORFOLK CCG (07J00),Plowright Medical Centre,,1 Jack Boddy Way,Swaffham,Norfolk,PE37 7HJ,3,3
WEST NORFOLK CCG (07J00),Southgates,Southgates Med & Surg Ctr,41 Goodwins Road,Kings Lynn,Norfolk,PE30 5QX,15,15
WEST NORFOLK CCG (07J00),St Clements Surgery,St Clement's Surgery,Churchgate Way,Terrington St Clement,Norfolk,PE34 4LZ,3,3
WEST NORFOLK CCG (07J00),Upwell Health Centre,The Upwell Health Centre,"Townley Close,Upwell",Wisbech,Cambridgeshire,PE14 9BT,7,7
WEST NORFOLK CCG (07J00),Vida Healthcare,Vida Healthcare/Groadh&sc,"St Nicholas Ct, Church Ln",Kings Lynn,Norfolk,PE31 6GZ,26,4
WEST NORFOLK CCG (07J00),Watlington Medical Centre,,"Rowan Close,Off Fen Road","Watlington,King's Lynn",Norfolk,PE33 0TU,5,5
WEST SUFFOLK CCG (07K00),Angel Hill Surgery,,1 Angel Hill,Bury St.Edmunds,Suffolk,IP33 1LU,13,13
WEST SUFFOLK CCG (07K00),Avicenna,10 The Chase,Stanton,Hopton,Suffolk,IP31 2XA,5,5
WEST SUFFOLK CCG (07K00),Botesdale Health Centre,The Health Centre,"Back Hills, Botesdale",Diss,Norfolk,IP22 1DW,9,9
WEST SUFFOLK CCG (07K00),Clements And Christmas Maltings Surgery,Christmas Maltings & Clem,Camps Road,Haverhill,Suffolk,CB9 8HF,13,13
WEST SUFFOLK CCG (07K00),Glemsford Surgery,The Surgery,"Lion Road, Glemsford",Sudbury,Suffolk,CO10 7RF,4,4
WEST SUFFOLK CCG (07K00),Hardwicke House Group Practice,Hardwicke House,Stour Street,Sudbury,Suffolk,CO10 2AY,16,16
WEST SUFFOLK CCG (07K00),Lakenheath Surgery,The Surgery,135 High Street,Lakenheath,Suffolk,IP27 9EP,5,5
WEST SUFFOLK CCG (07K00),Market Cross Surgery,The Market Cross Surgery,"7 Market Place,Mildenhall",Bury St.Edmunds,Suffolk,IP28 7EG,10,10
WEST SUFFOLK CCG (07K00),Oakfield Surgery,,Vicarage Road,Newmarket,Suffolk,CB8 8HP,5,5
WEST SUFFOLK CCG (07K00),Orchard House Surgery,,Fred Archer Way,Newmarket,Suffolk,CB8 8NU,9,9
WEST SUFFOLK CCG (07K00),Swan Surgery,The Swan Surgery,Northgate Street,Bury St. Edmunds,Suffolk,IP33 1AE,12,12
WEST SUFFOLK CCG (07K00),The Guildhall And Barrow Surgery,Guildhall & Barrow Surg,Lower Baxter Street,Bury St.Edmunds,Suffolk,IP33 1ET,9,9
WEST SUFFOLK CCG (07K00),The Long Melford Practice,,"Cordell Rd, Long Melford",Sudbury,Suffolk,CO10 9EP,9,9
WEST SUFFOLK CCG (07K00),The Reynard Surgery,Turnpike Road,Red Lodge,Bury St Edmunds,Suffolk,IP28 8LB,4,4
WEST SUFFOLK CCG (07K00),The Rookery Medical Centre,The Rookery Medical Ctr,The Rookery,Newmarket,Suffolk,CB8 8NW,13,13
WEST SUFFOLK CCG (07K00),Victoria Surgery,,Victoria Street,Bury St.Edmunds,Suffolk,IP33 3BB,9,9
WEST SUFFOLK CCG (07K00),Wickhambrook Surgery,"The Surgery, Boyden Close",Nunnery Green,Wickhambrook,"Newmarket, Suffolk",CB8 8XU,5,5
WEST SUFFOLK CCG (07K00),Woolpit Health Centre,,"Heath Road, Woolpit",Bury St.Edmunds,Suffolk,IP30 9QU,11,11
ASHFORD CCG (09C00),Charing Surgery,The Charing Surgery,"1 Surgery Close, Charing",Ashford,Kent,TN27 0AW,10,10
ASHFORD CCG (09C00),Hamstreet Surgery,The Surgery,"Ruckinge Rd, Hamstreet",Ashford,Kent,TN26 2NJ,6,5
ASHFORD CCG (09C00),Ivy Court Surgery,,Recreation Ground Road,Tenterden,Kent,TN30 6RB,11,11
ASHFORD CCG (09C00),Sellindge Surgery,The Surgery,Sellindge,Ashford,Kent,TN25 6JX,6,6
ASHFORD CCG (09C00),Woodchurch Surgery,The Surgery,Front Road,"Woodchurch,Ashford",Kent,TN26 3SF,4,4
ASHFORD CCG (09C00),Wye Surgery,,"Oxenturn Road, Wye",Ashford,Kent,TN25 5AY,7,7
CANTERBURY AND COASTAL CCG (09E00),Boughton Medical Centre,,"60 The Street, Boughton",Faversham,Kent,ME13 9AS,2,2
CANTERBURY AND COASTAL CCG (09E00),Canterbury Medical Practice,Bridge Health Centre,"Patrixbourne Road, Bridge",Canterbury,Kent,CT4 5BL,10,10
CANTERBURY AND COASTAL CCG (09E00),Chartham Surgery,,"Parish Road, Chartham",Nr Canterbury,Kent,CT4 7JU,3,3
CANTERBURY AND COASTAL CCG (09E00),Northgate Medical Practice,Northgate Medical Pract.,1 Northgate,Canterbury,Kent,CT1 1WL,13,13
CANTERBURY AND COASTAL CCG (09E00),Old School Surgery,The Old School Surgery,"Bolts Hill, Chartham",Nr. Canterbury,Kent,CT4 7JY,3,3
CANTERBURY AND COASTAL CCG (09E00),Sturry Surgery,,"53 Island Road,Sturry",Canterbury,Kent,CT2 0EF,13,12
CANTERBURY AND COASTAL CCG (09E00),William Street Surgery,Kingstone Cottage,67 William Street,Herne Bay,Kent,CT6 5NR,5,5
"EASTBOURNE, HAILSHAM AND SEAFORD CCG (09F00)",Old School Surgery,,Church Street,Seaford,East Sussex,BN25 1HH,7,7
COASTAL WEST SUSSEX CCG (09G00),Billingshurst Surgery,The Surgery,Roman Way,Billingshurst,West Sussex,RH14 9QZ,10,10
COASTAL WEST SUSSEX CCG (09G00),Cathedral Medical Group,,Cawley Road,Chichester,West Sussex,PO19 1XT,10,9
COASTAL WEST SUSSEX CCG (09G00),Henfield Medical Centre,,Deer Park,Henfield,West Sussex,BN5 9JQ,8,8
COASTAL WEST SUSSEX CCG (09G00),Langley House Surgery,Langley House,27 West Street,Chichester,West Sussex,PO19 1RW,10,10
COASTAL WEST SUSSEX CCG (09G00),Lavant Road Surgery,,8 Lavant Road,Chichester,West Sussex,PO19 5RH,9,9
COASTAL WEST SUSSEX CCG (09G00),Loxwood Surgery,Loxwood Medical Practice,Farm Close,Loxwood,West Sussex,RH14 0SU,4,4
COASTAL WEST SUSSEX CCG (09G00),Tangmere Medical Centre,,"Malcolm Road,Tangmere",Chichester,West Sussex,PO20 2HS,2,2
COASTAL WEST SUSSEX CCG (09G00),The Petworth Surgery,Petworth Surgery,Grove Street,Petworth,West Sussex,GU28 0LP,6,6
"DARTFORD, GRAVESHAM AND SWANLEY CCG (09J00)",Bennett Way Surgery,The Surgery,"Bennett Way, Darenth",Dartford,Kent,DA2 7JT,5,5
"DARTFORD, GRAVESHAM AND SWANLEY CCG (09J00)",Braeside Surgery,"The Surgery, Braeside","Gorse Hill, Farningham",Farningham,Kent,DA4 0JU,5,5
"DARTFORD, GRAVESHAM AND SWANLEY CCG (09J00)",Devon Road Surgery,32 Devon Road,South Darenth,Dartford,Kent,DA4 9AB,4,4
"DARTFORD, GRAVESHAM AND SWANLEY CCG (09J00)",Downs Way Medical Practice,Istead Rise Surgery,"Worcester Cl, Istead Rise",Gravesend,Kent,DA13 9LB,7,7
"DARTFORD, GRAVESHAM AND SWANLEY CCG (09J00)",Horns Cross Surgery,Elmdene,273 London Road,Horns Cross,"Greenhithe,Kent",DA9 9DB,5,5
"DARTFORD, GRAVESHAM AND SWANLEY CCG (09J00)",Meopham Medical Centre,,Wrotham Road,Meopham,Kent,DA13 0AH,5,5
"DARTFORD, GRAVESHAM AND SWANLEY CCG (09J00)",Swanscombe Health Centre,Swanscombe Medical Centre,Southfleet Road,Swanscombe,Kent,DA2 8BS,13,8
EAST SURREY CCG (09L00),Lingfield Surgery,The Surgery,East Grinstead Road,Lingfield,Surrey,RH7 6ER,6,5
GUILDFORD AND WAVERLEY CCG (09N00),Chiddingfold Surgery,The Surgery,Ridgley Road,Chiddingfold,Surrey,GU8 4QP,5,5
GUILDFORD AND WAVERLEY CCG (09N00),Fairlands Medical Practice,The Fairlands Practice,Fairlands Medical Centre,Fairlands Avenue,"Worplesdon, Guildford",GU3 3NA,10,10
GUILDFORD AND WAVERLEY CCG (09N00),Shere Surgery/Dispensary,,Gomshall Lane,"Shere, Guildford",Surrey,GU5 9DR,5,5
GUILDFORD AND WAVERLEY CCG (09N00),Witley Surgery,,"Wheeler Lane, Witley",Nr.Godalming,Surrey,GU8 5QR,7,7
HASTINGS & ROTHER CCG (09P00),Collington Surgery,,23 Terminus Road,Bexhill-On-Sea,East Sussex,TN39 3LR,5,4
HASTINGS & ROTHER CCG (09P00),Fairfield Surgery,,"High Street, Burwash",Etchingham,East Sussex,TN19 7EU,4,3
HASTINGS & ROTHER CCG (09P00),Ferry Road Health Centre,,Ferry Road,Rye,,TN31 7DN,1,1
HASTINGS & ROTHER CCG (09P00),Harold Road Surgery,The Surgery,164 Harold Road,Hastings,East Sussex,TN35 5NH,8,8
HASTINGS & ROTHER CCG (09P00),Northiam Surgery,The Surgery,"Main Street, Northiam",Rye,East Sussex,TN31 6ND,6,6
HASTINGS & ROTHER CCG (09P00),Oldwood Surgery,,Station Road,Robertsbridge,East Sussex,TN32 5DG,5,5
HASTINGS & ROTHER CCG (09P00),Roebuck House - Practice 3,Roebuck House,High Street,Hastings,East Sussex,TN34 3EY,3,3
HASTINGS & ROTHER CCG (09P00),Rye Medical Centre,,Kiln Drive,"Rye Foreign, Rye",East Sussex,TN31 7SQ,6,6
HASTINGS & ROTHER CCG (09P00),Sedlescombe & Westfield Surgeries,The Surgery,Sedlescombe,Battle,East Sussex,TN33 0PW,5,5
MEDWAY CCG (09W00),Highcliffe Medical Pract.,,Higham Surgery,Hermitage Road,"Higham, Rochester, Kent",ME3 7DB,4,4
MEDWAY CCG (09W00),Maidstone Rd Rainham Surgery,53b Maidstone Road,Rainham,Gillingham,Kent,ME8 0DP,6,6
MEDWAY CCG (09W00),Riverside Medical Practice,Riverside Medical Prac,"Ferry Road, Halling",Rochester,Kent,ME2 1NP,3,3
MEDWAY CCG (09W00),The Elms Medical Centre,,"Tilley Close,Main Rd,Hoo",Rochester,Kent,ME3 9AE,7,7
HORSHAM AND MID SUSSEX CCG (09X00),Cowfold Surgery,The Surgery,St.Peter's Close,"Cowfold, Horsham",West Sussex,RH13 8DN,4,4
HORSHAM AND MID SUSSEX CCG (09X00),Crawley Down Health Centre,The Health Centre,Bowers Place,Crawley Down,West Sussex,RH10 4HY,7,6
HORSHAM AND MID SUSSEX CCG (09X00),Ouse Valley Practice,Dumbledore P/Care Centre,London Road,Handcross,West Sussex,RH17 6HB,8,8
HORSHAM AND MID SUSSEX CCG (09X00),Park Surgery,The Park Surgery,Albion Way,Horsham,West Sussex,RH12 1BG,19,19
HORSHAM AND MID SUSSEX CCG (09X00),Rudgwick Medical Centre,,"Station Road, Rudgwick",Horsham,West Sussex,RH12 3HB,4,4
NORTH WEST SURREY CCG (09Y00),Pirbright Surgery,,"The Green, Pirbright",Nr. Woking,Surrey,GU24 0JE,4,4
SOUTH KENT COAST CCG (10A00),Buckland Medical Practice,Buckland Medical Centre,Brookfield Place,Buckland Avenue,"Dover, Kent",CT16 2AE,3,3
SOUTH KENT COAST CCG (10A00),Church Road,The Surgery,"Church Road,Lyminge",Folkestone,Kent,CT18 8HY,2,2
SOUTH KENT COAST CCG (10A00),High Street Surgery,The High Street Surgery,100 High Street,Dover,Kent,CT16 1EQ,5,5
SOUTH KENT COAST CCG (10A00),Lydden Surgery,114 Canterbury Road,Lydden,Dover,Kent,CT15 7ET,4,4
SOUTH KENT COAST CCG (10A00),New Lyminge Surgery,The New Lyminge Surgery,"Greenbanks, Lyminge",Folkestone,Kent,CT18 8NS,4,4
SOUTH KENT COAST CCG (10A00),White Cliffs Medical Centre,White Cliffs Medical Ctr.,143 Folkestone Road,Dover,Kent,CT17 9SG,6,6
SURREY HEATH CCG (10C00),Frimley Green Medical Ctr,The Health Centre,"1 Beech Rd, Frimley Green",Camberley,Surrey,GU16 6QQ,20,20
SWALE CCG (10D00),St Georges Medical Centre,,55 St Georges Avenue,Sheerness,Kent,ME12 1QU,7,7
SWALE CCG (10D00),Teynham Medical Centre,,"72 Station Road, Teynham",Sittingbourne,Kent,ME9 9SN,2,2
THANET CCG (10E00),Minster Surgery,75 High Street,Minster,Ramsgate,Kent,CT12 4AB,6,6
BRACKNELL AND ASCOT CCG (10G00),Binfield Surgery,,"Terrace Rd. N., Binfield",Bracknell,,RG42 5JG,7,6
CHILTERN CCG (10H00),Hughenden Valley Surgery,,Valley Road,Prestwood,Buckinghamshire,HP16 9DU,10,9
CHILTERN CCG (10H00),Stokenchurch Medical Ctre,"Stokenchurch Mc,Oxford Rd",Stokenchurch,High Wycombe,Buckinghamshire,HP14 3SX,7,7
CHILTERN CCG (10H00),"The Doctors House, Marlow Medical Group",The Doctors House Surgery,Victoria Road,Marlow,Buckinghamshire,SL7 1DN,18,18
NORTH HAMPSHIRE CCG (10J00),Bentley Village Surgery,,"Hole Lane, Bentley",Farnham,Surrey,GU10 5LP,4,4
NORTH HAMPSHIRE CCG (10J00),Boundaries Surgery,,17 Winchester Road,Four Marks,"Alton,Hampshire",GU34 5HG,4,4
NORTH HAMPSHIRE CCG (10J00),Clift Surgery,,"Minchens Lane, Bramley",Tadley,Hampshire,RG26 5BH,5,5
NORTH HAMPSHIRE CCG (10J00),Kingsclere Health Centre,,North Street,"Kingsclere, Newbury",Berkshire,RG20 5QX,4,4
NORTH HAMPSHIRE CCG (10J00),Tadley Medical P'ship,The Tadley Medical P'ship,"Holmwood Hc,Franklin Ave",Tadley,Hampshire,RG26 4ER,12,12
ISLE OF WIGHT CCG (10L00),South Wight Medical Practice,The Surgery,New Road,Niton,Isle Of Wight,PO38 2BN,5,5
NEWBURY AND DISTRICT CCG (10M00),Chapel Row Surgery,,"The Avenue, Bucklebury",Reading,Berkshire,RG7 6NS,6,6
NEWBURY AND DISTRICT CCG (10M00),Kintbury & Woolton Hill Surgery,Kintbury Surgery,Newbury Street,Kintbury,Berkshire,RG17 9UX,6,6
NEWBURY AND DISTRICT CCG (10M00),Lambourn Surgery,The Lambourn Surgery,Bockhampton Road,Lambourn,Berkshire,RG17 8PS,6,6
NEWBURY AND DISTRICT CCG (10M00),The Downland Practice,,"East Lane, Chieveley",Newbury,Berkshire,RG20 8UY,10,10
NORTH & WEST READING CCG (10N00),Mortimer Surgery,The Mortimer Surgery,72 Victoria Road,"Mortimer Common, Reading",Berkshire,RG7 3SQ,9,9
NORTH & WEST READING CCG (10N00),The Boat House Surgery,The Boathouse Surgery,"Whitchurch Rd, Pangbourne",Reading,,RG8 7DP,7,7
NORTH & WEST READING CCG (10N00),Theale Medical Centre,,"Englefield Road, Theale",Reading,Berkshire,RG7 5AS,8,8
OXFORDSHIRE CCG (10Q00),Bampton Surgery,,"Landells, Bampton",Oxford,,OX18 2LJ,4,4
OXFORDSHIRE CCG (10Q00),Bicester Health Centre,The Health Centre,The Health Centre,"Coker Close, Bicester",Oxfordshire,OX26 6AT,13,13
OXFORDSHIRE CCG (10Q00),Bloxham Surgery,The Surgery,Godswell Lodge,"Church Street, Bloxham",,OX15 4ES,5,5
OXFORDSHIRE CCG (10Q00),Broadshires Health Centre,,Broadshires Way,Carterton,Oxfordshire,OX18 1JA,8,8
OXFORDSHIRE CCG (10Q00),Burford Surgery,,59 Sheep Street,Burford,Oxfordshire,OX18 4LS,8,8
OXFORDSHIRE CCG (10Q00),Chipping Norton Health Centre,Russell Way,Chipping Norton,,Oxfordshire,OX7 5FA,14,14
OXFORDSHIRE CCG (10Q00),Clifton Hampden Surgery,,"Watery Ln,Clifton Hampden",Abingdon,Oxfordshire,OX14 3EL,5,5
OXFORDSHIRE CCG (10Q00),Cropredy Surgery,The Cropredy Surgery,Claydon Road,"Cropredy, Banbury",Oxfordshire,OX17 1FB,3,3
OXFORDSHIRE CCG (10Q00),Deddington Health Centre,The Health Centre,Earls Lane,"Deddington,Banbury",Oxford,OX15 0TQ,6,6
OXFORDSHIRE CCG (10Q00),Deer Park Medical Centre,,6 Edington Square,West Witney,Oxfordshire,OX28 5YT,3,3
OXFORDSHIRE CCG (10Q00),Eynsham Medical Group,Eynsham Medical Centre,"Conduit Lane, Eynsham",Oxford,,OX29 4QB,11,11
OXFORDSHIRE CCG (10Q00),Goring & Woodcote Medical Practice,The Health Centre,"Wayside Green, Woodcote",Reading,Berkshire,RG8 9HG,10,10
OXFORDSHIRE CCG (10Q00),Islip Surgery,The Surgery,Bletchington Road,"Islip,Oxford",,OX5 2TQ,6,6
OXFORDSHIRE CCG (10Q00),Langford Medical Practice,,9 Nightingale Place,Bicester,Oxfordshire,OX26 6XX,7,7
OXFORDSHIRE CCG (10Q00),Marcham Rd Family Health Centre,Family Health Centre,Marcham Road,Abingdon,Oxfordshire,OX14 1BT,9,9
OXFORDSHIRE CCG (10Q00),Montgomery House Surgery,,Piggy Lane,Bicester,Oxfordshire,OX26 6HT,10,10
OXFORDSHIRE CCG (10Q00),Morland House Surgery,,"London Road, Wheatley",Wheatley,Oxfordshire,OX33 1YJ,12,11
OXFORDSHIRE CCG (10Q00),Nettlebed Surgery,The Surgery,"Wanbourne Lane, Nettlebed",Henley-On-Thames,Oxfordshire,RG9 5AJ,4,4
OXFORDSHIRE CCG (10Q00),North Bicester Surgery,,Bure Park,Bicester,Oxfordshire,OX26 3HA,4,4
OXFORDSHIRE CCG (10Q00),Sibford Surgery,"New Surgery,Burdrop",Sibford Gower,Banbury,Oxfordshire,OX15 5RQ,2,2
OXFORDSHIRE CCG (10Q00),Sonning Common Health Ctr,,Wood Lane,"Sonning Common,Reading",Berkshire,RG4 9SW,6,6
OXFORDSHIRE CCG (10Q00),The Charlbury Medical Centre,Charlbury Medical Centre,"Enstone Road, Charlbury",Chipping Norton,,OX7 3PQ,3,3
OXFORDSHIRE CCG (10Q00),Victoria House Surgery,,119 Buckingham Road,Bicester,Oxfordshire,OX26 3EU,5,5
OXFORDSHIRE CCG (10Q00),Wallingford Medical Practice,Wallingford Med Practice,Reading Road,Wallingford,Oxfordshire,OX10 9DU,11,11
OXFORDSHIRE CCG (10Q00),White Horse Medical Practice,Volunteer Way,Volunteer Way,Faringdon,Oxfordshire,SN7 7YU,13,13
OXFORDSHIRE CCG (10Q00),Windrush Medical Practice,Windrush Health Centre,Welch Way,Witney,Oxfordshire,OX8 7HS,12,12
OXFORDSHIRE CCG (10Q00),Wychwood Surgery,The Wychwood Surgery,Meadow Lane,Shipton Under Wychwood,Oxfordshire,OX7 6BW,5,5
SOUTH EASTERN HAMPSHIRE CCG (10V00),Badgerswood Surgery,Forest Surgery,60 Forest Road,Bordon,Hampshire,GU35 0BP,7,1
SOUTH EASTERN HAMPSHIRE CCG (10V00),Denmead Health Centre,,Hambledon Road,Denmead,Waterlooville,PO7 6NR,5,5
SOUTH EASTERN HAMPSHIRE CCG (10V00),Liphook And Liss Surgery,,Station Road,Liss,Hampshire,GU33 7LE,10,10
SOUTH EASTERN HAMPSHIRE CCG (10V00),Riverside Partnership,Riverside Kelsey Surgery,75 Station Road,Liss,Hampshire,GU33 7AD,4,4
SOUTH EASTERN HAMPSHIRE CCG (10V00),Rowlands Castle Surgery,,12 The Green,Rowlands Castle,Hampshire,PO9 6BN,3,3
AYLESBURY VALE CCG (10Y00),Ashcroft Surgery,,"Stewkley Road, Wing",Leighton Buzzard,Bedfordshire,LU7 0NE,3,3
AYLESBURY VALE CCG (10Y00),Edlesborough Surgery,,"11 Cow Lane,Edlesborough",Dunstable,Bedfordshire,LU6 2HT,6,6
AYLESBURY VALE CCG (10Y00),Norden House Surgery,,Avenue Road,Winslow,Buckinghamshire,MK18 3DW,9,9
AYLESBURY VALE CCG (10Y00),Stewkley Road Surgery,The Surgery,"46 Stewkley Road, Wing",Leighton Buzzard,Bedfordshire,LU7 0NE,5,5
AYLESBURY VALE CCG (10Y00),The Swan Practice,,High Street,Buckingham,Buckinghamshire,MK18 1NU,12,12
AYLESBURY VALE CCG (10Y00),Trinity Health,,"High Street, Long Crendon",Aylesbury,Buckinghamshire,HP18 9AF,11,11
AYLESBURY VALE CCG (10Y00),Verney Close Surgery,Verney Close Family Pract,Verney Close,Buckingham,Buckinghamshire,MK18 1JP,7,7
AYLESBURY VALE CCG (10Y00),Waddesdon Surgery,,"Goss Avenue, Waddesdon","Waddesdon, Aylesbury",Buckinghamshire,HP18 0LY,4,4
AYLESBURY VALE CCG (10Y00),Westongrove Partnership,The Health Centre,136 London Road,Wendover,Buckinghamshire,HP22 6LD,25,25
AYLESBURY VALE CCG (10Y00),Whitchurch Surgery,,"49 Oving Road, Whitchurch",Aylesbury,Buckinghamshire,HP22 4JF,4,4
WEST HAMPSHIRE CCG (11A00),Abbeywell Surgery,,The Abbey,Romsey,Hampshire,SO51 8EN,11,11
WEST HAMPSHIRE CCG (11A00),Alma Road Surgery,,Alma Road,Romsey,Hampshire,SO51 8ED,8,8
WEST HAMPSHIRE CCG (11A00),Alresford Surgery,The Alresford Surgery,Station Road,Alresford,Hampshire,SO24 9JL,10,10
WEST HAMPSHIRE CCG (11A00),Bishops Waltham Surgery,"The Surgery, Lower Lane",Bishops Waltham,Southampton,Hampshire,SO32 1GR,9,9
WEST HAMPSHIRE CCG (11A00),Charlton Hill Surgery,,Charlton Road,Andover,Hampshire,SP10 3JY,9,9
WEST HAMPSHIRE CCG (11A00),Fordingbridge Surgery,The Fordingbridge Surgery,Bartons Road,Fordingbridge,Hampshire,SP6 1RS,11,11
WEST HAMPSHIRE CCG (11A00),Gratton Surgery,The Gratton Surgery,Gratton Close,Sutton Scotney,"Winchester, Hampshire",SO21 3LE,6,6
WEST HAMPSHIRE CCG (11A00),Stockbridge Surgery,The Surgery,New Street,Stockbridge,Hampshire,SO20 6HG,6,6
WEST HAMPSHIRE CCG (11A00),The Watercress Medical Group,Mansfield Park Surgery,Lymington Bottom Road,Medstead,Hampshire,GU34 5EW,6,6
WEST HAMPSHIRE CCG (11A00),Twin Oaks Medical Centre,,"Ringwood Road,Bransgore",Christchurch,Dorset,BH23 8AD,5,5
WEST HAMPSHIRE CCG (11A00),Twyford Surgery,The Surgery,"Hazeley Road,Twyford",Winchester,Hampshire,SO21 1QY,5,5
WEST HAMPSHIRE CCG (11A00),West Meon Surgery,,"Doctors Lane,West Meon",Petersfield,Hampshire,GU32 1LR,3,3
WEST HAMPSHIRE CCG (11A00),Whitchurch Surgery,,Bell Street,Whitchurch,Hampshire,RG28 7AE,6,6
WEST HAMPSHIRE CCG (11A00),Wickham Surgery,Houghton Way,Mill Lane,Wickham,Hampshire,PO17 5GU,9,9
"WINDSOR, ASCOT AND MAIDENHEAD CCG (11C00)",Claremont Holyport Surgery,Claremont Surgery,2 Cookham Road,2 Cookham Road,Maidenhead,SL6 8AN,15,15
WOKINGHAM CCG (11D00),Finchampstead Practice,The Finchampstead Surgery,474-478 Finchampstead Rd.,Wokingham,Berkshire,RG40 3RG,9,1
WOKINGHAM CCG (11D00),Swallowfield Medical Practice,Swallowfield Med Practice,"The Street,Swallowfield",Reading,Berkshire,RG7 1QY,8,8
WOKINGHAM CCG (11D00),Twyford Surgery,The Twyford Surgery,"6 Loddon Hall Rd, Twyford",Reading,Berkshire,RG10 9JA,10,10
WOKINGHAM CCG (11D00),Wargrave Practice,The Surgery,"Victoria Road, Wargrave",Reading,Berkshire,RG10 8BP,6,6
BATH AND NORTH EAST SOMERSET CCG (11E00),Chew Medical Practice,,"Chew Lane, Chew Stoke",Bristol,,BS40 8UE,8,7
BATH AND NORTH EAST SOMERSET CCG (11E00),Elm Hayes Surgery,,"Clandown Road, Paulton",Bristol,,BS39 7SF,7,7
BATH AND NORTH EAST SOMERSET CCG (11E00),Harptree Surgery,,"Bristol Rd, West Harptree",Bristol,,BS40 6HF,5,5
BATH AND NORTH EAST SOMERSET CCG (11E00),St Chads Surgery,St.Chad's Surgery,Gullock Tyning,Midsomer Norton,Bath,BA3 2UH,11,10
BATH AND NORTH EAST SOMERSET CCG (11E00),St. Mary's Surgery,,"St. Mary's Close,Timsbury",Bath,,BA2 0HX,7,7
DORSET CCG (11J00),Atrium Health Centre,,7 Weymouth Avenue,Dorchester,Dorset,DT1 1QR,5,5
DORSET CCG (11J00),Barton House Med Practice,,,Beaminster,Dorset,DT8 3EQ,5,5
DORSET CCG (11J00),Bere Regis Surgery,The Surgery,"Manor Farm Rd,Bere Regis",Wareham,Dorset,BH20 7HB,3,3
DORSET CCG (11J00),Bute House,,Grove Medical Centre,Wootton Grove,"Sherborne, Dorset",DT9 4DL,4,4
DORSET CCG (11J00),Cerne Abbas Surgery,The Cerne Abbas Practice,"51 Long St, Cerne Abbas",Dorchester,Dorset,DT2 7JG,4,4
DORSET CCG (11J00),Corfe Castle Surgery,Tom's Mead,"West Street, Corfe Castle",,Dorset,BH20 5HH,2,2
DORSET CCG (11J00),Malthouse Meadows Surgery,The Surgery,Malthouse Meadows,Portesham,Dorset,DT3 4NS,2,2
DORSET CCG (11J00),Milton Abbas Surgery,The Surgery,Catherines Well,Milton Abbas,"Blandford Forum, Dorset",DT11 0AT,3,3
DORSET CCG (11J00),Newland Surgery,,"Grove Med Ctr, Wootton Gr",Sherborne,Dorset,DT9 4DL,6,6
DORSET CCG (11J00),Poundbury Doctors Surgery,,3 Frederick Treves House,Dorchester,Dorset,DT1 2FD,5,5
DORSET CCG (11J00),Puddletown Surgery,,Athelhampton Road,Puddletown,Dorset,DT2 8FY,3,3
DORSET CCG (11J00),Quarterjack Surgery,,Rodways Corner,Wimborne,Dorset,BH21 1AP,9,9
DORSET CCG (11J00),Stalbridge Surgery,,"Station Road,Stalbridge",Sturminster Newton,Dorset,DT10 2RG,2,2
DORSET CCG (11J00),The Apples Medical Centre,,East Mill Lane,Sherborne,Dorset,DT9 3DG,4,4
DORSET CCG (11J00),The Cranborne Practice,The Surgery,"Pennys Lane, Cranborne",Wimborne,Dorset,BH21 5QE,8,8
DORSET CCG (11J00),The Tollerford Practice,Pound Piece Surgery,"Pound Piece,Maiden Newton",Dorchester,Dorset,DT2 0DB,4,3
DORSET CCG (11J00),The Wellbridge Practice,,"Wool Surgery, Meadow Lane",Wool Wareham,Dorset,BH20 6DR,7,7
DORSET CCG (11J00),Village Medical Practice,,164 Station Road,"West Moors,Ferndown",Dorset,BH22 0JB,1,1
DORSET CCG (11J00),West Moors Group Practice,,"175 Station Rd,West Moors",Ferndown,Dorset,BH22 0HX,4,4
DORSET CCG (11J00),Whitecliff Group Practice,,Whitecliff Mill Street,Blandford,Dorset,DT11 7BH,14,14
DORSET CCG (11J00),Yetminster Medical Centre,The Surgery,Church Street,Yetminster,Sherborne,DT9 6LG,4,4
GLOUCESTERSHIRE CCG (11M00),Blakeney Surgery,,Mill End,Blakeney,Gloucestershire,GL15 4ED,4,4
GLOUCESTERSHIRE CCG (11M00),Brunston Practice,,Cinderhill,Coleford,Gloucestershire,GL16 8HJ,7,7
GLOUCESTERSHIRE CCG (11M00),Cam & Uley Family Practice,Cam & Uley Family Pract,"42 The Street, Uley",Dursley,Gloucestershire,GL11 5SY,13,13
GLOUCESTERSHIRE CCG (11M00),Chipping Campden Surgery,,Back Ends,Chipping Campden,Gloucestershire,GL55 6AU,5,5
GLOUCESTERSHIRE CCG (11M00),Chipping Surgery,The Chipping Surgery,Wotton-Under-Edge,Wotton-Under-Edge,Gloucestershire,GL12 7BD,6,6
GLOUCESTERSHIRE CCG (11M00),Coleford Family Doctors,Coleford Health Centre,Railway Drive,Coleford,Gloucestershire,GL16 8RH,4,4
GLOUCESTERSHIRE CCG (11M00),College Yard & Highnam,The College Yard Surgery,"Mount Street, Westgate",Gloucester,,GL1 2RE,3,3
GLOUCESTERSHIRE CCG (11M00),Cotswold Medical Practice,"Cotswold M/Pract,Moore Rd",Bourton On The Water,Cheltenham,,GL54 2AZ,9,9
GLOUCESTERSHIRE CCG (11M00),Culverhay Surgery,The Culverhay Surgery,Culverhay,Wotton-Under-Edge,Gloucestershire,GL12 7LS,6,6
GLOUCESTERSHIRE CCG (11M00),Drybrook Surgery,The Surgery,Drybrook,Gloucestershire,,GL17 9JE,3,3
GLOUCESTERSHIRE CCG (11M00),Forest Health Care,,Cinderford Health Centre,"Dockham Road,Cinderford",Gloucestershire,GL14 2AN,7,7
GLOUCESTERSHIRE CCG (11M00),Frampton Surgery,The Surgery,Whitminster Lane,Frampton On Severn,Gloucester,GL2 7HU,4,4
GLOUCESTERSHIRE CCG (11M00),Frithwood Surgery,,45 Tanglewood Way,"Bussage,Stroud",Gloucestershire,GL6 8DE,4,4
GLOUCESTERSHIRE CCG (11M00),Hilary Cottage Surgery,,Keble Lawns,Fairford,Gloucestershire,GL7 4BQ,8,8
GLOUCESTERSHIRE CCG (11M00),Holts Health Centre,The Holts Health Centre,Watery Lane,Newent,Gloucestershire,GL18 1BA,8,8
GLOUCESTERSHIRE CCG (11M00),Lydney Practice,,"The Health Ctr, Albert St",Lydney,Gloucestershire,GL15 5NQ,6,6
GLOUCESTERSHIRE CCG (11M00),Mann Cottage Surgery,Four Shires Medical Cntr,Stow Road,Moreton-In-Marsh,Gloucestershire,GL56 0DS,3,3
GLOUCESTERSHIRE CCG (11M00),Mitcheldean Surgery,,Brook Street,Mitcheldean,Gloucestershire,GL17 0AU,3,3
GLOUCESTERSHIRE CCG (11M00),Newnham Surgery,The Surgery,High Street,Newnham-On-Severn,Gloucestershire,GL14 1BE,2,2
GLOUCESTERSHIRE CCG (11M00),Phoenix Surgery,,9 Chesterton Lane,Cirencester,Gloucestershire,GL7 1XG,9,9
GLOUCESTERSHIRE CCG (11M00),Regent Street Surgery,,73 Regent Street,Stonehouse,Gloucestershire,GL10 2AA,5,5
GLOUCESTERSHIRE CCG (11M00),Rendcomb Surgery,,Rendcomb,Cirencester,Gloucestershire,GL7 7EY,3,3
GLOUCESTERSHIRE CCG (11M00),Romney House Surgery,,41-43 Long Street,Tetbury,Gloucestershire,GL8 8AA,6,6
GLOUCESTERSHIRE CCG (11M00),Severnbank Surgery,,Tutnalls Street,Lydney,Gloucestershire,GL15 5PF,4,4
GLOUCESTERSHIRE CCG (11M00),Staunton & Corse Surgery,"The Surgery,Gloucester Rd","Corse, Staunton",Gloucester,,GL19 3RB,4,4
GLOUCESTERSHIRE CCG (11M00),Stow Surgery,,Well Lane,Stow-On-The-Wold,"Cheltenham, Gloucester",GL54 1EQ,6,6
GLOUCESTERSHIRE CCG (11M00),White House Surgery,Four Shires Medical Cntr,Stow Road,Moreton-In-Marsh,Gloucestershire,GL56 0DS,3,3
GLOUCESTERSHIRE CCG (11M00),Winchcombe Medical Centre,,"Greet Road, Winchcombe",Cheltenham,Gloucestershire,GL54 5GZ,6,6
GLOUCESTERSHIRE CCG (11M00),Yorkley Health Centre(wg),Yorkley Health Centre,Bailey Hill,"Yorkley,Lydney",Gloucestershire,GL15 4RS,6,5
KERNOW CCG (11N00),Bottreaux Surgery,,,Cornwall,Cornwall,PL35 0BG,4,4
KERNOW CCG (11N00),Brannel Surgery,,"58 Rectory Rd, St Stephen",St Austell,Cornwall,PL26 7RL,4,4
KERNOW CCG (11N00),Cape Cornwall Surgery,,St.Just-In-Penwith,Penzance,Cornwall,TR19 7HX,3,3
KERNOW CCG (11N00),Carn To Coast Health Centres,Carn To Coast Health Ctrs,Station Road,Pool,Cornwall,TR15 3DU,12,12
KERNOW CCG (11N00),Carnewater Practice,,"The Hlth Ctr, Dennison Rd",Bodmin,Cornwall,PL31 2LB,8,7
KERNOW CCG (11N00),Carnon Downs Surgery,The Surgery,"Bissoe Road,Carnon Downs",Truro,Cornwall,TR3 6JD,6,6
KERNOW CCG (11N00),Chacewater Health Centre,The Health Centre,Chacewater,Truro,Cornwall,TR4 8QS,4,4
KERNOW CCG (11N00),Clays Practice,The Clays Practice,"Victoria Road, Roche",St. Austell,Cornwall,PL26 8JF,7,7
KERNOW CCG (11N00),Fowey River Practice,The Surgery,"The Surgery,Rawlings Lane",Fowey,Cornwall,PL23 1DT,6,6
KERNOW CCG (11N00),Harris Memorial Surgery,,"Robartes Terrace, Illogan",Redruth,Cornwall,TR16 4RX,5,5
KERNOW CCG (11N00),Helston Medical Centre,,Trelawney Road,Helston,Cornwall,TR13 8AU,16,16
KERNOW CCG (11N00),Launceston Medical Centre,,Landlake Road,Launceston,Cornwall,PL15 9HH,11,11
KERNOW CCG (11N00),Lostwithiel Surgery,,North Street,Lostwithiel,Cornwall,PL22 0EF,3,3
KERNOW CCG (11N00),Marazion Surgery,,Gwallon Lane,Marazion,Cornwall,TR17 0HW,9,9
KERNOW CCG (11N00),Medical Centre Camelford (dr Garrod),The Medical Centre,Churchfield,Camelford,Cornwall,PL32 9YT,1,1
KERNOW CCG (11N00),Medical Centre Camelford (dr Nash),The Medical Centre,Churchfield,Camelford,Cornwall,PL32 9YT,2,2
KERNOW CCG (11N00),Mevagissey Surgery,The Surgery,"River Street, Mevagissey",St Austell,Cornwall,PL26 6UE,4,4
KERNOW CCG (11N00),Mullion Health Centre,The Health Centre,Mullion,Helston,Cornwall,TR12 7DQ,9,9
KERNOW CCG (11N00),Oak Tree Surgery,,Clemo Road,Liskeard,Cornwall,PL14 3XA,10,10
KERNOW CCG (11N00),Old Bridge Surgery,Station Road,Station Road,East Looe,Cornwall,PL13 1HA,9,9
KERNOW CCG (11N00),Penalverne Surgery,,Penalverne Drive,Penzance,Cornwall,TR18 2RE,4,4
KERNOW CCG (11N00),Penryn Surgery,The Penryn Surgery,Saracen Way,Penryn,Cornwall,TR10 8HX,15,15
KERNOW CCG (11N00),Pensilva Health Centre,The Health Centre,"School Road, Pensilva",Liskeard,Cornwall,PL14 5RP,5,5
KERNOW CCG (11N00),Perranporth Surgery,The Perranporth Surgery,,Perranporth,Cornwall,TR6 0PS,7,7
KERNOW CCG (11N00),Petroc Group Practice,The Surgery,Trekenning Road,St.Columb Major,Cornwall,TR9 6RR,16,16
KERNOW CCG (11N00),Port Isaac Surgery,The Surgery,Hillson Close,Port Issac,Cornwall,PL29 3TR,6,6
KERNOW CCG (11N00),Praze-An-Beeble Surgery,,"School Rd,Praze-An-Beeble",Camborne,Cornwall,TR14 0LB,4,4
KERNOW CCG (11N00),Probus Surgery,The Surgery,"Tregony Road, Probus",Truro,Truro,TR2 4JZ,10,10
KERNOW CCG (11N00),Quay Lane Surgery,,"Old Quay Lane, St.Germans",Saltash,Cornwall,PL12 5LH,4,4
KERNOW CCG (11N00),Rosedean Surgery,,8 Dean Street,Liskeard,Cornwall,PL14 4AQ,9,9
KERNOW CCG (11N00),Roseland Surgeries,The Surgery,"Gerrans Hill, Portscatho",Truro,Cornwall,TR2 5EE,5,5
KERNOW CCG (11N00),St Keverne Health Centre,The Health Centre,St. Keverne,Helston,Cornwall,TR12 6PB,3,3
KERNOW CCG (11N00),St Mary's Health Centre,The Health Centre,King Edward Lane,St Marys,Isles Of Scilly,TR21 0HE,10,10
KERNOW CCG (11N00),St Marys Health Centre OOH,King Edward Lane,,St Marys,Isles Of Scilly,TR21 0HE,1,1
KERNOW CCG (11N00),St.Agnes Surgery,,Pengarth Road,St.Agnes,Cornwall,TR5 0TN,8,8
KERNOW CCG (11N00),Stillmoor House,,Bell Lane,Bodmin,Cornwall,PL31 2JJ,7,7
KERNOW CCG (11N00),Tamar Valley Health,,"The Health Ctr, Haye Road",Callington,Cornwall,PL17 7AW,16,16
KERNOW CCG (11N00),Trescobeas Surgery,,Trescobeas Road,Falmouth,Cornwall,TR11 2UN,8,8
KERNOW CCG (11N00),Wadebridge & Camel Estuary Practice,Wadebridge And Camel,Estuary Practice,Brooklyn,"Wadebridge,Cornwall",PL27 7BS,8,8
NORTH SOMERSET CCG (11T00),Heywood Family Practice,Heywood Surgery,"Lodway Gardens, Pill",Pill,North Somerset,BS20 0DL,7,7
NORTH SOMERSET CCG (11T00),Mendip Vale Medical Practice,Langford Surgery,"Pudding Pie Lane,Langford",Bristol,,BS40 5EL,15,15
SOMERSET CCG (11X00),Beckington Family Practice,Beckington Family Pract.,St Luke's Surgery,"Beckington, Frome",Somerset,BA11 6SE,9,9
SOMERSET CCG (11X00),Brendon Hills Surgery,,3 Park Street,Dunster,Somerset,TA24 6SR,3,3
SOMERSET CCG (11X00),Brent Area Medical Centre,,Anvil House,"Brent Road, East Brent","Highbridge, Somerset",TA9 4JD,3,3
SOMERSET CCG (11X00),Cannington Health Centre,,"Mill Lane, Cannington",Bridgwater,Somerset,TA5 2HB,4,4
SOMERSET CCG (11X00),"Church View Surgery, Illminster",Church View Surgery,"Broadway Rd, Broadway",Illminster,Somerset,TA19 9RX,3,3
SOMERSET CCG (11X00),Dunster Surgery,The Surgery,3 Park Street,Dunster,Somerset,TA24 6SR,6,6
SOMERSET CCG (11X00),Exmoor Medical Centre,Oldberry House,Fishers Mead,Dulverton,Somerset,TA22 9EN,3,3
SOMERSET CCG (11X00),Langport Surgery,,North Street,Langport,Somerset,TA10 9RH,6,6
SOMERSET CCG (11X00),Lister House Partnership,Lister House Surgery,"Croft Way, Wiveliscombe",Taunton,Somerset,TA4 2BF,7,7
SOMERSET CCG (11X00),Mendip Country Practice,,Church Street,"Coleford, Radstock",Somerset,BA3 5NQ,6,6
SOMERSET CCG (11X00),Milborne Port Surgery,Gainsborough,Milborne Port,Sherborne,Dorset,DT9 5FH,6,6
SOMERSET CCG (11X00),North Curry,The Health Centre,Greenway,North Curry,"Near Taunton, Somerset",TA3 6NQ,5,5
SOMERSET CCG (11X00),North Petherton Surgery,The Surgery,Mill Street,North Petherton,Somerset,TA6 6LX,6,6
SOMERSET CCG (11X00),Oakhill Surgery,"Oakhill Surg, Pondsmead","Shepton Road, Oakhill",Radstock,Somerset,BA3 5HT,4,4
SOMERSET CCG (11X00),Polden Medical Practice,,"Quarry Ground, Edington",Bridgwater,Somerset,TA7 9HA,5,5
SOMERSET CCG (11X00),Quantock Medical Centre,"Quantock M/C,Banneson Rd",Nether Stowey,Nr Bridgwater,Somerset,TA5 1NW,4,4
SOMERSET CCG (11X00),Quantock Vale Surgery,Mount Street,Bishops Lydeard,Taunton,Somerset,TA4 3LH,4,4
SOMERSET CCG (11X00),Queen Camel Medical Centre,West Camel Road,Queen Camel,Yeovil,Somerset,BA22 7LT,6,6
SOMERSET CCG (11X00),Summervale Surgery,Ilminster Medical Centre,Canal Way,Ilminster,Somerset,TA19 9FE,8,8
SOMERSET CCG (11X00),The Meadows Surgery,,Canal Way,Ilminster,Somerset,TA19 9FE,3,2
SOMERSET CCG (11X00),Westlake (s),Westlake Surgery,"High Street,West Coker",Yeovil,Somerset,BA22 9AH,2,2
SOMERSET CCG (11X00),Westlake Surgery,,"High Street, West Coker",Yeovil,Somerset,BA22 9AH,2,2
SOUTH GLOUCESTERSHIRE CCG (12A00),Close Farm Surgery,,47 Victoria Road,North Common,"Warmley, Bristol",BS30 5JZ,7,7
SOUTH GLOUCESTERSHIRE CCG (12A00),Hanham Health,Hanham Surgery,"33 Whittucks Road, Hanham",Bristol,,BS15 3HY,34,11
SOUTH GLOUCESTERSHIRE CCG (12A00),Three Shires Medical Practice,Wick Surgery,"35 High Street, Colerne",Chippenham,Wiltshire,SN14 8NQ,8,8
SWINDON CCG (12D00),Cornerstone Practice,,"Station Road, Chiseldon",Swindon,Wiltshire,SN4 0PB,4,4
SWINDON CCG (12D00),Elm Tree Surgery,,"High Sreet, Shrivenham",Swindon,Wiltshire,SN6 8AG,5,5
SWINDON CCG (12D00),Ridgeway View Family Practice,Wroughton Health Centre,"Barrett Way,Wroughton",Swindon,Wiltshire,SN4 9LW,7,7
SWINDON CCG (12D00),Westrop Surgery,,"Newburgh Place, Highworth",Swindon,Wiltshire,SN6 7DN,9,9
NEWCASTLE GATESHEAD CCG (13T00),Chopwell Primary Healthcare Centre,Primary Healthcare Centre,"South Road, Chopwell",Newcastle Upon Tyne,Tyne & Wear,NE17 7BU,2,2
NEWCASTLE GATESHEAD CCG (13T00),Rowlands Gill Medical Centre,The Medical Centre,The Grove,Rowlands Gill,Tyne & Wear,NE39 1PW,6,6
NORTH TYNESIDE CCG (99C00),Woodlands Park Health Ctr,,"Canterbury Way,Wideopen",Newcastle Upon Tyne,Tyne & Wear,NE13 6JJ,5,5
SOUTH LINCOLNSHIRE CCG (99D00),Abbeyview Surgery,Crowland Health Centre,"Thorney Rd, Crowland",Peterborough,Lincolnshire,PE6 0AL,5,5
SOUTH LINCOLNSHIRE CCG (99D00),Beechfield Medical Centre,Beechfield Gardens,,Spalding,Lincolnshire,PE11 1UN,7,7
SOUTH LINCOLNSHIRE CCG (99D00),Bourne Galletly Practice Team,Bourne Galletly Prac Team,40 North Road,Bourne,Lincolnshire,PE10 9BT,7,7
SOUTH LINCOLNSHIRE CCG (99D00),Gosberton Medical Centre,,"Lowgate, Gosberton",Nr.Spalding,Lincolnshire,PE11 4NL,3,3
SOUTH LINCOLNSHIRE CCG (99D00),Hereward Medical Centre,,Exeter Street,Bourne,Lincolnshire,PE10 9XR,11,10
SOUTH LINCOLNSHIRE CCG (99D00),Littlebury Medical Centre,,Fishpond Lane,"Holbeach, Spalding",Lincolnshire,PE12 7DE,3,3
SOUTH LINCOLNSHIRE CCG (99D00),Long Sutton Medical Ctr.,,"Trafalgar Sq, Long Sutton",Spalding,Lincolnshire,PE12 9HB,8,8
SOUTH LINCOLNSHIRE CCG (99D00),Moulton Medical Centre,,High Street,"Moulton, Spalding",Lincolnshire,PE12 6QB,4,4
SOUTH LINCOLNSHIRE CCG (99D00),Munro Medical Centre,,West Elloe Avenue,Spalding,Lincolnshire,PE11 2BY,4,4
SOUTH LINCOLNSHIRE CCG (99D00),Pennygate Surgery,Pennygate Health Centre,210 Pennygate,Spalding,Lincolnshire,PE11 1LT,1,1
SOUTH LINCOLNSHIRE CCG (99D00),St.Mary's Medical Centre,,Wharf Road,Stamford,Lincolnshire,PE9 2DH,11,11
SOUTH LINCOLNSHIRE CCG (99D00),Sutterton Surgery,The Surgery,Spalding Road,Sutterton,Lincolnshire,PE20 2ET,1,1
SOUTH LINCOLNSHIRE CCG (99D00),The Deepings Practice,,"Godsey Lne,Market Deeping",Peterborough,Cambridgeshire,PE6 8DD,16,16
SOUTH LINCOLNSHIRE CCG (99D00),The Little Surgery,,21 St Marys Street,Stamford,Lincolnshire,PE9 2DG,3,3
SOUTH LINCOLNSHIRE CCG (99D00),The New Sheepmarket Surg.,,Ryhall Road,Stamford,Lincolnshire,PE9 1YA,10,10
BASILDON AND BRENTWOOD CCG (99E00),Deal Tree Health Centre,,"Blackmore Rd,Doddinghurst",Brentwood,Essex,CM15 0HU,5,5
CASTLE POINT AND ROCHFORD CCG (99F00),Ashingdon Medical Centre,57 Lascelles Gardens,Ashingdon,Rochford,Essex,SS4 3BW,3,3
CASTLE POINT AND ROCHFORD CCG (99F00),Wakering Medical Ctr.,,274 High Street,Great Wakering,Essex,SS3 0HX,7,7
SURREY DOWNS CCG (99H00),Brockwood Medical Practice,The Surgery,"Tanners Meadow, Brockham",Betchworth,Surrey,RH3 7NJ,14,14
SURREY DOWNS CCG (99H00),Dorking Medical Practice,New House Surgery,142a South Street,Dorking,Surrey,RH4 2QR,10,8
SURREY DOWNS CCG (99H00),Leith Hill Practice,The Leith Hill Practice,The Old Forge Surgery,"168 The Street, Capel","Dorking, Surrey",RH5 5EN,5,5
SURREY DOWNS CCG (99H00),Riverbank Surgery,,"Westcott Street, Westcott",Dorking,Surrey,RH4 3PA,2,2
WEST KENT CCG (99J00),Amherst Medical Practice,,21 St Botolphs Road,Sevenoaks,Kent,TN13 3AQ,10,10
WEST KENT CCG (99J00),Bearsted,The Surgery,"Yeoman Lane, Bearsted",Maidstone,Kent,ME14 4DS,9,9
WEST KENT CCG (99J00),Borough Green Medical Practice,Borough Green Med.Pract.,Quarry Hill Road,Borough Green,Kent,TN15 8RQ,9,9
WEST KENT CCG (99J00),Cobtree,Cobtree Medical Practice,Southways,Sutton Valence,"Maidstone, Kent",ME17 3HT,4,4
WEST KENT CCG (99J00),Edenbridge Med Practice,The Surgery,Station Road,Edenbridge,Kent,TN8 5ND,10,10
WEST KENT CCG (99J00),Hadlow Medical Centre,"Hadlow Med Ctr,Hadlow","Old School,School Lane",Hadlow,Kent,TN11 0ET,4,4
WEST KENT CCG (99J00),Headcorn Surgery,Grigg Lane,,Headcorn,Kent,TN27 9AA,4,4
WEST KENT CCG (99J00),Hildenborough Medical Group,The Hildenborough Med.Ctr,"Westwood, Tonbridge Road",Hildenborough,Kent,TN11 9HL,11,11
WEST KENT CCG (99J00),Howell Surgery,,High Street,Brenchley,Kent,TN12 7NQ,5,5
WEST KENT CCG (99J00),Lamberhurst,The Surgery,"The Down,Lamberhurst",Tunbridge Wells,Kent,TN3 8EX,4,4
WEST KENT CCG (99J00),Langley,The Orchard Surgery,"Horseshoes Lane, Langley",Maidstone,Kent,ME17 3JY,4,4
WEST KENT CCG (99J00),Lenham,Len Valley Practice,"Groom Way,Lenham",Maidstone,Kent,ME17 2QF,6,6
WEST KENT CCG (99J00),Marden Medical Centre,,"Church Green, Marden",Tonbridge,Kent,TN12 9HP,6,6
WEST KENT CCG (99J00),North Ridge Medical Practice,North Ridge,"Rye Road, Hawkhurst",Cranbrook,Kent,TN18 4EX,4,4
WEST KENT CCG (99J00),Old School,The Old School Surgery,Rectory Fields,Cranbrook,Kent,TN17 3JB,3,3
WEST KENT CCG (99J00),Orchard End,Orchard End Surgery,Dorothy Avenue,Cranbrook,Kent,TN17 3AY,3,2
WEST KENT CCG (99J00),Phoenix Medical Practice,Phoenix Med Practice,"33 Bell Lane,Burham",Nr.Rochester,Kent,ME1 3SX,4,4
WEST KENT CCG (99J00),Speldhurst & Greggswood Medical Group,The Medical Centre,Greggs Wood Road,Tunbridge Wells,Kent,TN2 3JL,6,6
WEST KENT CCG (99J00),Sutton Valence,Sutton Valence Surgery,South Lane,Sutton Valence,"Maidstone, Kent",ME17 3BD,4,4
WEST KENT CCG (99J00),Warders Medical Centre,,East Street,Tonbridge,Kent,TN9 1LA,13,13
WEST KENT CCG (99J00),Wateringbury,14 Pelican Court,Wateringbury,Maidstone,Kent,ME18 5SS,6,6
WEST KENT CCG (99J00),Westerham Practice,Winterton Surgery,"Market Square, Westerham",Sevenoaks,Kent,TN16 1RB,8,8
WEST KENT CCG (99J00),Wish Valley Surgery,"The Surgery, Wish Valley",Talbot Road,Hawkhurst,Kent,TN18 4NB,6,6
WEST KENT CCG (99J00),Yalding,Yalding Surgery,"Burgess Bank,Benover Road",Maidstone,Kent,ME18 6ES,6,6
HIGH WEALD LEWES HAVENS CCG (99K00),Ashdown Forest Health Centre,Ashdown Forest Health Ctr,Lewes Road,Forest Row,East Sussex,RH18 5AQ,7,7
HIGH WEALD LEWES HAVENS CCG (99K00),Belmont Surgery,,St.James Square,Wadhurst,East Sussex,TN5 6BJ,6,6
HIGH WEALD LEWES HAVENS CCG (99K00),Buxted Medical Centre,,"Framfield Road, Buxted",Uckfield,East Sussex,TN22 5FD,9,9
HIGH WEALD LEWES HAVENS CCG (99K00),Groombridge And Hartfield Med Grp,"The Nook, Withyham Road",Groombridge,Tunbridge Wells,Kent,TN3 9QP,5,5
HIGH WEALD LEWES HAVENS CCG (99K00),Heathfield Surgery,The Surgery,96-98 High Street,Heathfield,East Sussex,TN21 8JD,8,7
NORTH EAST HAMPSHIRE AND FARNHAM CCG (99M00),Crondall New Surgery,,Redlands Lane,Crondall,"Farnham, Surrey",GU10 5RF,4,4
NORTH EAST HAMPSHIRE AND FARNHAM CCG (99M00),Holly Tree Surgery,,42 Boundstone Road,"Wrecclesham, Farnham",Surrey,GU10 4TG,4,4
WILTSHIRE CCG (99N00),Avon Valley Practice,,Fairfield,"Upavon, Pewsey",Wiltshire,SN9 6DZ,4,4
WILTSHIRE CCG (99N00),Bradford-On-Avon And Melksham Health,The Health Centre,Station Approach,Bradford-On-Avon,Wiltshire,BA15 1DQ,15,15
WILTSHIRE CCG (99N00),Burbage Surgery,9 The Sprays,Burbage,Marlborough,Wiltshire,SN8 3TA,5,5
WILTSHIRE CCG (99N00),Cricklade Surgery,,113 High Street,Cricklade,Swindon,SN6 6AE,1,1
WILTSHIRE CCG (99N00),Cross Plain Surgery,,84 Bulford Road,"Durrington, Salisbury",Wiltshire,SP4 8DH,6,6
WILTSHIRE CCG (99N00),Downton Surgery,The Surgery,"Moot Lane,Downton",Salisbury,Wiltshire,SP5 3JP,5,4
WILTSHIRE CCG (99N00),Endless Street Surgery,72 Endless Street,,Salisbury,Wiltshire,SP1 3UH,12,12
WILTSHIRE CCG (99N00),Glenside,The Old Orchard Surgery,South Street,Wilton,,SP2 8JU,1,1
WILTSHIRE CCG (99N00),Hindon Surgery,The Surgery,High Street,Hindon,Salisbury,SP3 6DJ,3,3
WILTSHIRE CCG (99N00),Jubilee Field Surgery,,Yatton Keynell,Chippenham,Wiltshire,SN14 7EJ,4,4
WILTSHIRE CCG (99N00),Marlborough Surgery,The Marlborough Surgery,George Lane,Marlborough,Wiltshire,SN8 4BY,10,10
WILTSHIRE CCG (99N00),Mere Surgery,,Dark Lane,"Mere,Warminster",Wiltshire,BA12 6DT,5,5
WILTSHIRE CCG (99N00),Old School House Surgery,,Church Street,Great Bedwyn,"Marlborough,Wiltshire",SN8 3PF,4,4
WILTSHIRE CCG (99N00),Patford House Surgery Partnership,Patford House Surgery,8a Patford Street,Calne,Wiltshire,SN11 0EF,4,4
WILTSHIRE CCG (99N00),Ramsbury Surgery,,Whittonditch Road,"Ramsbury, Marlborough",Wiltshire,SN8 2QT,6,6
WILTSHIRE CCG (99N00),Silton Surgery,The Surgery,"Gillingham Road,Silton",Gillingham,Dorset,SP8 5DF,3,3
WILTSHIRE CCG (99N00),Sixpenny Handley Surgery,"The Surgery, Dean Lane",Sixpenny Handley,Salisbury,Wiltshire,SP5 5PA,4,4
WILTSHIRE CCG (99N00),St Ann Street Surgery,82 St.Ann Street,,Salisbury,Wiltshire,SP1 2PT,8,8
WILTSHIRE CCG (99N00),The Orchard Partnership,,"South Street, Wilton",Salisbury,Wiltshire,SP2 0JU,13,13
WILTSHIRE CCG (99N00),Tolsey Surgery,The Tolsey Surgery,High Street,"Sherston,Malmesbury",Wiltshire,SN16 0LH,4,4
WILTSHIRE CCG (99N00),White Horse Health Centre,,"Mane Way, Leigh Park",Westbury,Wiltshire,BA13 3FQ,10,10
WILTSHIRE CCG (99N00),Whiteparish Surgery,,"Common Road, Whiteparish",Salisbury,Wiltshire,SP5 2SU,7,7
"NORTH, EAST, WEST DEVON CCG (99P00)",Abbey Surgery,,28 Plymouth Road,Tavistock,Devon,PL19 8BU,14,14
"NORTH, EAST, WEST DEVON CCG (99P00)",Axminster Medical Practice,The Axminster Med Pract,"St Thomas Court,Church St",Axminster,Devon,EX13 5AG,12,11
"NORTH, EAST, WEST DEVON CCG (99P00)",Beacon Medical Group,Mudge Way,Plympton,Plymouth,,PL7 1AD,24,24
"NORTH, EAST, WEST DEVON CCG (99P00)",Black Torrington Surgery,Blake House,Black Torrington,Beaworthy,Devon,EX21 5QE,2,2
"NORTH, EAST, WEST DEVON CCG (99P00)",Blackdown Practice,The Blackdown Practice,The Surgery,"Station Road, Hemyock","Cullompton, Devon",EX15 3SF,8,8
"NORTH, EAST, WEST DEVON CCG (99P00)",Bow Medical Practice,Iter Cross,Bow,Crediton,Devon,EX17 6FB,4,4
"NORTH, EAST, WEST DEVON CCG (99P00)",Bradworthy Surgery,The New Surgery,The Square,Bradworthy,"Holsworthy,Devon",EX22 7SY,3,3
"NORTH, EAST, WEST DEVON CCG (99P00)",Castle Gardens Surgery,,Castle Hill Gardens,Torrington,Devon,EX38 8EU,8,8
"NORTH, EAST, WEST DEVON CCG (99P00)",Cheriton Bishop Surgery,The Surgery,Cheriton Bishop,Exeter,Devon,EX6 6JA,4,4
"NORTH, EAST, WEST DEVON CCG (99P00)",Claremont Medical Practice,Claremont Med Practice,Claremont Grove,Exmouth,Devon,EX8 2JW,10,10
"NORTH, EAST, WEST DEVON CCG (99P00)",College Surgery Partnership,Culm Valley Integrated Ch,Willand Road,Cullompton,Devon,EX15 1FE,14,14
"NORTH, EAST, WEST DEVON CCG (99P00)",Hartland Surgery,66 The Square,Hartland,Bideford,Devon,EX39 6BL,2,2
"NORTH, EAST, WEST DEVON CCG (99P00)",Hatherleigh Medical Centre,Hatherleigh Medical Ctre,Pipers Meadow,Hatherleigh,Devon,EX20 3JT,2,2
"NORTH, EAST, WEST DEVON CCG (99P00)",Lifton Surgery,,North Road,Lifton,Devon,PL16 0EH,2,2
"NORTH, EAST, WEST DEVON CCG (99P00)",Litchdon Medical Centre,,Landkey Road,Barnstaple,Devon,EX32 9LL,14,14
"NORTH, EAST, WEST DEVON CCG (99P00)",Mid Devon Medical Practice,Witheridge Medical Centre,"Cannington Rd, Witheridge",Tiverton,Devon,EX16 8EZ,6,6
"NORTH, EAST, WEST DEVON CCG (99P00)",Modbury Health Centre,The Health Centre,Poundwell Meadow,"Modbury, Ivybridge",Devon,PL21 0QL,5,5
"NORTH, EAST, WEST DEVON CCG (99P00)",New Valley Practice,Newcombes,,Crediton,Devon,EX17 2AR,9,9
"NORTH, EAST, WEST DEVON CCG (99P00)",Okehampton Medical Centre,,East Street,Okehampton,Devon,EX20 1AY,13,13
"NORTH, EAST, WEST DEVON CCG (99P00)",Pinhoe Surgery,The Pinhoe Surgery,"Pinn Lane, Pinhoe",Exeter,Devon,EX1 3SY,8,8
"NORTH, EAST, WEST DEVON CCG (99P00)",Sampford Peverell Surgery,,29 Lower Town,Sampford Peverell,Devon,EX16 7BJ,16,16
"NORTH, EAST, WEST DEVON CCG (99P00)",Torrington Health Centre,,New Road,Torrington,Devon,EX38 8EL,6,6
"NORTH, EAST, WEST DEVON CCG (99P00)",Wallingbrook Health Centre,Wallingbrook Health Ctr,Back Lane,Chulmleigh,Devon,EX18 7DL,10,8
"NORTH, EAST, WEST DEVON CCG (99P00)",Wembury Surgery,The Surgery,"51 Hawthorn Dr, Wembury",Plymouth,Devon,PL9 0BE,3,3
"NORTH, EAST, WEST DEVON CCG (99P00)",Woodbury Surgery,The Surgery,"Fulford Way, Woodbury",Exeter,Devon,EX5 1NZ,4,4
"NORTH, EAST, WEST DEVON CCG (99P00)",Wyndham House Surgery,,Silverton,Exeter,Devon,EX5 4HZ,4,4
"NORTH, EAST, WEST DEVON CCG (99P00)",Yealm Medical Centre,,"Market St, Yealmpton",Plymouth,Devon,PL8 2EA,7,7
"NORTH, EAST, WEST DEVON CCG (99P00)",Yelverton Surgery,The Surgery,Westella Road,Yelverton,Devon,PL20 6AS,6,6
SOUTH DEVON AND TORBAY CCG (99Q00),Ashburton Surgery,The Surgery,Eastern Road,Ashburton,Devon,TQ13 7AP,6,6
SOUTH DEVON AND TORBAY CCG (99Q00),Chillington Health Centre,,"Orchard Way, Chillington",Kingsbridge,Devon,TQ7 2LB,3,3
SOUTH DEVON AND TORBAY CCG (99Q00),Kingskerswell & Ipplepen Med Practice,The Health Centre,Silver Street,Newton Abbot,Devon,TQ12 5QA,8,8
